state,district,pincode_x,age_0_5,age_5_17,age_18_greater,pincode_y,bio_age_5_17,bio_age_17_,pincode,demo_age_5_17,demo_age_17_,child_to_bio_gap,demo_without_bio_gap,child_to_adult_gap,q1_insight,migration_pressure_index,migration_signal
andaman and nicobar islands,nicobar,29027753,65,11,0,148116101,815,719,0,0,0,-804,-719,11,Backlog clearing / catch-up activity,719,Severe urban pressure (migration hub)
andaman and nicobar islands,north middle andaman,119810864,193,9,0,548446410,3637,3735,0,0,0,-3628,-3735,9,Backlog clearing / catch-up activity,3735,Severe urban pressure (migration hub)
andaman and nicobar islands,south andaman,136175213,210,11,0,661534010,5742,3347,0,0,0,-5731,-3347,11,Backlog clearing / catch-up activity,3347,Severe urban pressure (migration hub)
andhra pradesh,alluri sitharama raju,385373165,1086,111,34,982674348,7853,8761,0,0,0,-7742,-8761,77,Backlog clearing / catch-up activity,250.3142857,Severe urban pressure (migration hub)
andhra pradesh,anakapalli,231004289,513,12,8,774777289,3324,2947,0,0,0,-3312,-2947,4,Backlog clearing / catch-up activity,327.4444444,Severe urban pressure (migration hub)
andhra pradesh,ananthapuramu,3024102952,8828,603,10,9332041342,161301,86049,0,0,0,-160698,-86049,593,Backlog clearing / catch-up activity,7822.636364,Severe urban pressure (migration hub)
andhra pradesh,annamayya,353443400,838,47,105,904288455,5555,3652,0,0,0,-5508,-3652,-58,Backlog clearing / catch-up activity,34.45283019,Severe urban pressure (migration hub)
andhra pradesh,bapatla,212212327,414,52,16,852080264,3785,1952,0,0,0,-3733,-1952,36,Backlog clearing / catch-up activity,114.8235294,Severe urban pressure (migration hub)
andhra pradesh,chittoor,1844663286,7396,638,42,3818554414,149954,73297,0,0,0,-149316,-73297,596,Backlog clearing / catch-up activity,1704.581395,Severe urban pressure (migration hub)
andhra pradesh,east godavari,2227626623,7044,482,10,5595380497,186618,85434,0,0,0,-186136,-85434,472,Backlog clearing / catch-up activity,7766.727273,Severe urban pressure (migration hub)
andhra pradesh,eluru,273377245,562,42,16,993726715,4117,3634,0,0,0,-4075,-3634,26,Backlog clearing / catch-up activity,213.7647059,Severe urban pressure (migration hub)
andhra pradesh,guntur,2131151014,8610,895,34,4232010609,168010,92425,0,0,0,-167115,-92425,861,Backlog clearing / catch-up activity,2640.714286,Severe urban pressure (migration hub)
andhra pradesh,kadapa,1737692919,6143,439,34,3994881670,108452,53571,0,0,0,-108013,-53571,405,Backlog clearing / catch-up activity,1530.6,Severe urban pressure (migration hub)
andhra pradesh,kakinada,367434002,846,82,27,978105521,6938,4240,0,0,0,-6856,-4240,55,Backlog clearing / catch-up activity,151.4285714,Severe urban pressure (migration hub)
andhra pradesh,konaseema,294355792,608,30,17,1045717444,4236,2773,0,0,0,-4206,-2773,13,Backlog clearing / catch-up activity,154.0555556,Severe urban pressure (migration hub)
andhra pradesh,krishna,1780940880,6080,530,34,4273120976,129972,76572,0,0,0,-129442,-76572,496,Backlog clearing / catch-up activity,2187.771429,Severe urban pressure (migration hub)
andhra pradesh,kurnool,1995075917,10728,792,24,3398186969,215330,97065,0,0,0,-214538,-97065,768,Backlog clearing / catch-up activity,3882.6,Severe urban pressure (migration hub)
andhra pradesh,nandyal,329689742,851,37,6,991129068,6054,4023,0,0,0,-6017,-4023,31,Backlog clearing / catch-up activity,574.7142857,Severe urban pressure (migration hub)
andhra pradesh,nellore,1922301083,6393,2055,608,4239941810,100510,56467,0,0,0,-98455,-56467,1447,Backlog clearing / catch-up activity,92.72085386,Severe urban pressure (migration hub)
andhra pradesh,ntr,341589507,781,94,46,984286177,6408,6031,0,0,0,-6314,-6031,48,Backlog clearing / catch-up activity,128.3191489,Severe urban pressure (migration hub)
andhra pradesh,palnadu,308268411,742,75,25,855313692,5714,3735,0,0,0,-5639,-3735,50,Backlog clearing / catch-up activity,143.6538462,Severe urban pressure (migration hub)
andhra pradesh,parvathipuram manyam,206454549,455,36,8,696643103,4728,5053,0,0,0,-4692,-5053,28,Backlog clearing / catch-up activity,561.4444444,Severe urban pressure (migration hub)
andhra pradesh,prakasam,1890465325,6298,1129,61,3944691167,124542,68524,0,0,0,-123413,-68524,1068,Backlog clearing / catch-up activity,1105.225806,Severe urban pressure (migration hub)
andhra pradesh,sri sathya sai,363867498,865,39,19,991705694,4966,4248,0,0,0,-4927,-4248,20,Backlog clearing / catch-up activity,212.4,Severe urban pressure (migration hub)
andhra pradesh,srikakulam,1249435099,4107,130,8,2717484834,102194,60432,0,0,0,-102064,-60432,122,Backlog clearing / catch-up activity,6714.666667,Severe urban pressure (migration hub)
andhra pradesh,tirupati,483558499,777,676,228,1058971554,5365,4383,0,0,0,-4689,-4383,448,Backlog clearing / catch-up activity,19.13973799,Severe urban pressure (migration hub)
andhra pradesh,visakhapatnam,1909270461,7733,465,41,3716918055,173535,100775,0,0,0,-173070,-100775,424,Backlog clearing / catch-up activity,2399.404762,Severe urban pressure (migration hub)
andhra pradesh,vizianagaram,1122144064,3643,150,3,2622527353,89330,52229,0,0,0,-89180,-52229,147,Backlog clearing / catch-up activity,13057.25,Severe urban pressure (migration hub)
andhra pradesh,west godavari,1815686034,5494,333,24,4539065197,124317,70761,0,0,0,-123984,-70761,309,Backlog clearing / catch-up activity,2830.44,Severe urban pressure (migration hub)
arunachal pradesh,anjaw,15842080,23,11,3,54655176,620,417,0,0,0,-609,-417,8,Backlog clearing / catch-up activity,104.25,Severe urban pressure (migration hub)
arunachal pradesh,changlang,143371364,482,299,13,331098365,4953,2408,0,0,0,-4654,-2408,286,Backlog clearing / catch-up activity,172,Severe urban pressure (migration hub)
arunachal pradesh,dibang valley,7128918,7,3,0,49902435,298,117,0,0,0,-295,-117,3,Backlog clearing / catch-up activity,117,Severe urban pressure (migration hub)
arunachal pradesh,east kameng,52146742,88,76,14,99552896,2501,1363,0,0,0,-2425,-1363,62,Backlog clearing / catch-up activity,90.86666667,Severe urban pressure (migration hub)
arunachal pradesh,east siang,60123794,80,82,2,121038741,2108,948,0,0,0,-2026,-948,80,Backlog clearing / catch-up activity,316,Severe urban pressure (migration hub)
arunachal pradesh,kamle,13449210,3,25,2,27689550,57,86,0,0,0,-32,-86,23,Backlog clearing / catch-up activity,28.66666667,Severe urban pressure (migration hub)
arunachal pradesh,kra daadi,29271366,18,58,4,56169378,642,401,0,0,0,-584,-401,54,Backlog clearing / catch-up activity,80.2,Severe urban pressure (migration hub)
arunachal pradesh,kurung kumey,26898012,19,44,12,65662794,1206,1555,0,0,0,-1162,-1555,32,Backlog clearing / catch-up activity,119.6153846,Severe urban pressure (migration hub)
arunachal pradesh,leparada,2373303,0,2,1,18195323,34,2,0,0,0,-32,-2,1,Backlog clearing / catch-up activity,1,Stable / low migration
arunachal pradesh,lohit,64948573,100,60,1,196434030,1696,1731,0,0,0,-1636,-1731,59,Backlog clearing / catch-up activity,865.5,Severe urban pressure (migration hub)
arunachal pradesh,longding,61775209,141,719,37,170610704,1478,859,0,0,0,-759,-859,682,Backlog clearing / catch-up activity,22.60526316,Severe urban pressure (migration hub)
arunachal pradesh,lower dibang valley,41981830,57,48,2,64953020,1293,758,0,0,0,-1245,-758,46,Backlog clearing / catch-up activity,252.6666667,Severe urban pressure (migration hub)
arunachal pradesh,lower siang,18986859,10,18,3,81484528,333,42,0,0,0,-315,-42,15,Backlog clearing / catch-up activity,10.5,Severe urban pressure (migration hub)
arunachal pradesh,lower subansiri,45884949,50,55,0,101263310,1449,1022,0,0,0,-1394,-1022,55,Backlog clearing / catch-up activity,1022,Severe urban pressure (migration hub)
arunachal pradesh,namsai,68120914,93,54,1,174262746,3348,2168,0,0,0,-3294,-2168,53,Backlog clearing / catch-up activity,1084,Severe urban pressure (migration hub)
arunachal pradesh,pakke kessang,3160412,2,1,1,28443708,18,38,0,0,0,-17,-38,0,Backlog clearing / catch-up activity,19,Severe urban pressure (migration hub)
arunachal pradesh,papum pare,186702737,200,235,5,409797103,4490,3707,0,0,0,-4255,-3707,230,Backlog clearing / catch-up activity,617.8333333,Severe urban pressure (migration hub)
arunachal pradesh,shi yomi,15029057,8,22,5,51415193,196,307,0,0,0,-174,-307,17,Backlog clearing / catch-up activity,51.16666667,Severe urban pressure (migration hub)
arunachal pradesh,siang,35596459,39,60,4,111538716,826,366,0,0,0,-766,-366,56,Backlog clearing / catch-up activity,73.2,Severe urban pressure (migration hub)
arunachal pradesh,tawang,66368827,104,42,7,158811103,1746,520,0,0,0,-1704,-520,35,Backlog clearing / catch-up activity,65,Severe urban pressure (migration hub)
arunachal pradesh,tirap,49810674,59,39,1,213913677,1310,481,0,0,0,-1271,-481,38,Backlog clearing / catch-up activity,240.5,Severe urban pressure (migration hub)
arunachal pradesh,upper siang,26111538,21,20,1,117136481,1182,489,0,0,0,-1162,-489,19,Backlog clearing / catch-up activity,244.5,Severe urban pressure (migration hub)
arunachal pradesh,upper subansiri,41929466,76,55,12,61707516,2245,1362,0,0,0,-2190,-1362,43,Backlog clearing / catch-up activity,104.7692308,Severe urban pressure (migration hub)
arunachal pradesh,west kameng,99546733,156,103,18,348417675,2779,2780,0,0,0,-2676,-2780,85,Backlog clearing / catch-up activity,146.3157895,Severe urban pressure (migration hub)
arunachal pradesh,west siang,76734765,108,78,2,200968990,3133,1126,0,0,0,-3055,-1126,76,Backlog clearing / catch-up activity,375.3333333,Severe urban pressure (migration hub)
assam,bajali,21877349,19,8,2,17189297,6,17,343785847,57,787,2,770,6,Healthy lifecycle,268,Severe urban pressure (migration hub)
assam,baksa,555539036,2091,1154,398,950117786,10269,5326,1328287841,949,11228,-9115,5902,756,Backlog clearing / catch-up activity,41.4887218,Severe urban pressure (migration hub)
assam,barpeta,986808851,10484,3248,531,1327464206,57641,26976,1554830303,4157,44983,-54393,18007,2717,Backlog clearing / catch-up activity,135.2612782,Severe urban pressure (migration hub)
assam,biswanath,385029214,785,448,74,746533839,5635,3072,1011584585,617,7449,-5187,4377,374,Backlog clearing / catch-up activity,140.28,Severe urban pressure (migration hub)
assam,bongaigaon,473163812,2303,608,219,768499509,21622,10805,907941884,2619,27125,-21014,16320,389,Backlog clearing / catch-up activity,172.4090909,Severe urban pressure (migration hub)
assam,cachar,2005917601,11421,4446,1524,2892624438,40179,21779,3624070814,3844,42941,-35733,21162,2922,Backlog clearing / catch-up activity,42.43934426,Severe urban pressure (migration hub)
assam,charaideo,273418853,655,323,194,489482198,5681,1995,652905213,618,7197,-5358,5202,129,Backlog clearing / catch-up activity,47.13846154,Severe urban pressure (migration hub)
assam,chirang,397157201,2006,1047,263,700266453,16467,8330,833439367,996,10511,-15420,2181,784,Backlog clearing / catch-up activity,71.36742424,Severe urban pressure (migration hub)
assam,darrang,621884948,4364,1860,1290,825800671,15577,9083,996779786,2526,19313,-13717,10230,570,Backlog clearing / catch-up activity,21.99535244,Severe urban pressure (migration hub)
assam,dhemaji,470603525,3832,1795,1191,695670971,10872,7402,851483835,1393,14443,-9077,7041,604,Backlog clearing / catch-up activity,18.32634228,Severe urban pressure (migration hub)
assam,dhubri,1012803121,8388,3774,364,1268939322,33608,17447,1489046924,6115,62790,-29834,45343,3410,Backlog clearing / catch-up activity,219.8273973,Severe urban pressure (migration hub)
assam,dibrugarh,839670114,3883,1649,1492,1289374498,13526,9450,1824815595,1536,19103,-11877,9653,157,Backlog clearing / catch-up activity,19.12458138,Severe urban pressure (migration hub)
assam,dima hasao,205888101,620,521,165,341568610,2714,1152,0,0,0,-2193,-1152,356,Backlog clearing / catch-up activity,6.939759036,Severe urban pressure (migration hub)
assam,goalpara,574041697,6854,2182,796,764345849,16306,9869,927239070,3557,29781,-14124,19912,1386,Backlog clearing / catch-up activity,49.74905897,Severe urban pressure (migration hub)
assam,golaghat,780915489,5510,4013,1920,1059814604,11665,7081,1316715013,1411,17510,-7652,10429,2093,Backlog clearing / catch-up activity,12.80114524,Severe urban pressure (migration hub)
assam,hailakandi,633738037,3806,1385,308,829223703,13846,6483,1032609691,2042,17227,-12461,10744,1077,Backlog clearing / catch-up activity,76.73139159,Severe urban pressure (migration hub)
assam,hojai,457728312,5271,1584,155,626735724,13686,12492,729236277,2052,19498,-12102,7006,1429,Backlog clearing / catch-up activity,205.0641026,Severe urban pressure (migration hub)
assam,jorhat,906284061,2886,1101,860,1501525797,9837,5004,1972724129,946,13291,-8736,8287,241,Backlog clearing / catch-up activity,21.2485482,Severe urban pressure (migration hub)
assam,kamrup,1412351439,9241,3394,1043,2055244922,27454,11999,2811372993,2947,36096,-24060,24097,2351,Backlog clearing / catch-up activity,46.06800766,Severe urban pressure (migration hub)
assam,kamrup metro,1321719286,2637,2033,1336,1981029608,12648,10653,0,0,0,-10615,-10653,697,Backlog clearing / catch-up activity,7.967838444,Severe urban pressure (migration hub)
assam,karbi anglong,714371326,2908,4059,1067,1096964280,23523,12652,0,0,0,-19464,-12652,2992,Backlog clearing / catch-up activity,11.84644195,Severe urban pressure (migration hub)
assam,kokrajhar,584380511,2511,1551,518,968222418,14893,9686,1156226793,1390,17469,-13342,7783,1033,Backlog clearing / catch-up activity,52.32177264,Severe urban pressure (migration hub)
assam,lakhimpur,702783573,4682,1794,644,1014784727,15719,11230,1217571810,2416,22653,-13925,11423,1150,Backlog clearing / catch-up activity,52.53178295,Severe urban pressure (migration hub)
assam,majuli,113844382,343,154,11,245746233,1796,1142,321906590,235,2422,-1642,1280,143,Backlog clearing / catch-up activity,297,Severe urban pressure (migration hub)
assam,marigaon,615597093,6706,2879,824,809583650,17056,13357,1020006279,3493,31363,-14177,18006,2055,Backlog clearing / catch-up activity,54.20606061,Severe urban pressure (migration hub)
assam,nagaon,1378295708,8940,3400,393,2109670726,41006,68584,2469509466,5904,73534,-37606,4950,3007,Backlog clearing / catch-up activity,360.7055838,Severe urban pressure (migration hub)
assam,nalbari,845381492,2686,946,195,1429821885,12629,5259,1827517903,1574,14220,-11683,8961,751,Backlog clearing / catch-up activity,99.38265306,Severe urban pressure (migration hub)
assam,sivasagar,645039929,1746,613,767,1250012279,7486,2783,0,0,0,-6873,-2783,-154,Backlog clearing / catch-up activity,3.623697917,High migration activity
assam,sonitpur,1351150994,5464,2634,972,2140053892,15624,11505,2759568254,2360,30618,-12990,19113,1662,Backlog clearing / catch-up activity,43.29188078,Severe urban pressure (migration hub)
assam,south salmara mancachar,189517663,1056,359,46,254517345,2606,1860,0,0,0,-2247,-1860,313,Backlog clearing / catch-up activity,39.57446809,Severe urban pressure (migration hub)
assam,sribhumi,1329698277,9386,4801,603,1765047110,23311,10870,0,0,0,-18510,-10870,4198,Backlog clearing / catch-up activity,17.99668874,Severe urban pressure (migration hub)
assam,tamulpur,38286890,22,33,0,46881811,17,53,0,0,0,16,-53,33,Healthy lifecycle,53,Severe urban pressure (migration hub)
assam,tinsukia,933193681,3868,2840,1602,1385245886,10947,6321,1909625125,1501,25463,-8107,19142,1238,Backlog clearing / catch-up activity,19.82782283,Severe urban pressure (migration hub)
assam,udalguri,727151025,2649,1298,583,1145233754,10663,8402,1582091500,1013,13531,-9365,5129,715,Backlog clearing / catch-up activity,37.55650685,Severe urban pressure (migration hub)
assam,west karbi anglong,122064110,390,984,507,117370420,1008,2149,0,0,0,-24,-2149,477,Backlog clearing / catch-up activity,4.230314961,High migration activity
bihar,araria,922649677,9803,5294,111,1239600572,59490,68921,1485650414,6227,113607,-54196,44686,5183,Backlog clearing / catch-up activity,1629.714286,Severe urban pressure (migration hub)
bihar,arwal,464844145,801,2916,33,660131262,10656,15316,843422100,1674,19577,-7740,4261,2883,Backlog clearing / catch-up activity,1026.264706,Severe urban pressure (migration hub)
bihar,aurangabad,1366449079,3008,6741,71,1886139787,40509,42330,2423018682,7783,72265,-33768,29935,6670,Backlog clearing / catch-up activity,1591.597222,Severe urban pressure (migration hub)
bihar,banka,1099445830,6092,4530,78,1647675495,42950,40481,1976963148,5334,67333,-38420,26852,4452,Backlog clearing / catch-up activity,1364.734177,Severe urban pressure (migration hub)
bihar,begusarai,1462457114,7939,4755,56,2078401451,59472,62352,2556627278,9669,91238,-54717,28886,4699,Backlog clearing / catch-up activity,2694.561404,Severe urban pressure (migration hub)
bihar,bhagalpur,1443119471,10325,9974,375,2066058860,59065,63951,2405081379,10436,102288,-49091,38337,9599,Backlog clearing / catch-up activity,442.125,Severe urban pressure (migration hub)
bihar,bhojpur,1825440713,3087,9512,95,2549720320,34361,45365,3034159084,8019,102307,-24849,56942,9417,Backlog clearing / catch-up activity,1538.25,Severe urban pressure (migration hub)
bihar,buxar,1176710278,2482,4473,64,1617877447,21631,27196,1936320084,5391,48499,-17158,21303,4409,Backlog clearing / catch-up activity,1164.538462,Severe urban pressure (migration hub)
bihar,darbhanga,2036391201,9911,5520,67,2827570081,79992,99336,3238410254,9703,113139,-74472,13803,5453,Backlog clearing / catch-up activity,3124.632353,Severe urban pressure (migration hub)
bihar,gaya,1697229925,6620,19591,421,2217509910,69412,78033,2617776998,14117,125305,-49821,47272,19170,Backlog clearing / catch-up activity,481.8436019,Severe urban pressure (migration hub)
bihar,gopalganj,1117423859,5255,9367,196,1513723764,40367,49063,1705566168,5896,75133,-31000,26070,9171,Backlog clearing / catch-up activity,630.4365482,Severe urban pressure (migration hub)
bihar,jamui,636066755,5072,4884,155,838894260,40027,29465,949232067,4030,46211,-35143,16746,4729,Backlog clearing / catch-up activity,485.1025641,Severe urban pressure (migration hub)
bihar,jehanabad,848196573,901,3661,138,1251411326,13290,17732,1482289321,3405,33070,-9629,15338,3523,Backlog clearing / catch-up activity,365.4820144,Severe urban pressure (migration hub)
bihar,kaimur (bhabua),578353517,3001,4600,84,752871597,31075,33186,0,0,0,-26475,-33186,4516,Backlog clearing / catch-up activity,390.4235294,Severe urban pressure (migration hub)
bihar,katihar,1162751456,11194,4720,112,1570232621,81567,102079,1739378665,9002,135365,-76847,33286,4608,Backlog clearing / catch-up activity,2101.274336,Severe urban pressure (migration hub)
bihar,khagaria,788901264,4285,3639,61,1011895105,33155,33744,1190529719,5920,55546,-29516,21802,3578,Backlog clearing / catch-up activity,1440.16129,Severe urban pressure (migration hub)
bihar,kishanganj,437797820,6752,1705,23,589962612,50203,74782,631012624,4561,113753,-48498,38971,1682,Backlog clearing / catch-up activity,7855.625,Severe urban pressure (migration hub)
bihar,lakhisarai,418598547,2644,3338,68,623028860,18895,22915,730923148,3304,36884,-15557,13969,3270,Backlog clearing / catch-up activity,866.6521739,Severe urban pressure (migration hub)
bihar,madhepura,868384418,4402,4090,36,1234752190,45311,54109,1412050305,5312,67617,-41221,13508,4054,Backlog clearing / catch-up activity,3289.891892,Severe urban pressure (migration hub)
bihar,madhubani,2202785144,12438,12090,779,3005018043,93518,106734,3388757447,10180,126609,-81428,19875,11311,Backlog clearing / catch-up activity,299.1576923,Severe urban pressure (migration hub)
bihar,munger,561873648,2450,3403,106,771422992,18526,24240,983402704,3139,38735,-15123,14495,3297,Backlog clearing / catch-up activity,588.5514019,Severe urban pressure (migration hub)
bihar,muzaffarpur,2468015096,13941,13721,650,3453707361,79424,97308,3979002839,11483,148160,-65703,50852,13071,Backlog clearing / catch-up activity,377.06298,Severe urban pressure (migration hub)
bihar,nalanda,1361270569,3600,10405,129,1883162573,44986,54336,2270709092,9502,119667,-34581,65331,10276,Backlog clearing / catch-up activity,1338.484615,Severe urban pressure (migration hub)
bihar,nawada,1148056284,2714,12078,283,1548151591,31667,38221,1750184597,5466,63195,-19589,24974,11795,Backlog clearing / catch-up activity,357.0985915,Severe urban pressure (migration hub)
bihar,pashchim champaran,1136969084,16538,28359,1329,1437027996,65776,76286,0,0,0,-37417,-76286,27030,Backlog clearing / catch-up activity,57.35789474,Severe urban pressure (migration hub)
bihar,patna,2678335433,6663,16516,735,4056211769,81406,97518,4803528458,16124,180870,-64890,83352,15781,Backlog clearing / catch-up activity,378.2445652,Severe urban pressure (migration hub)
bihar,purbi champaran,2221820936,14092,27926,1575,2885005173,82137,96352,0,0,0,-54211,-96352,26351,Backlog clearing / catch-up activity,61.13705584,Severe urban pressure (migration hub)
bihar,purnia,1457443357,12150,7527,174,2177642360,93451,108458,2500557334,7355,110517,-85924,2059,7353,Backlog clearing / catch-up activity,1251.285714,Severe urban pressure (migration hub)
bihar,rohtas,1333034944,2703,4858,74,2037599252,42582,52290,2371203938,8341,87687,-37724,35397,4784,Backlog clearing / catch-up activity,1866.36,Severe urban pressure (migration hub)
bihar,saharsa,918628940,6169,6296,200,1258634712,36140,65024,1421396525,4859,56007,-29844,-9017,6096,Backlog clearing / catch-up activity,602.1442786,Severe urban pressure (migration hub)
bihar,samastipur,2134859318,11021,7364,121,2899038741,79507,87702,3405410659,11073,142900,-72143,55198,7243,Backlog clearing / catch-up activity,1890.180328,Severe urban pressure (migration hub)
bihar,saran,2576068629,7473,15682,215,3428293292,55247,72388,3914553133,11093,113980,-39565,41592,15467,Backlog clearing / catch-up activity,862.8148148,Severe urban pressure (migration hub)
bihar,sheikhpura,361774374,1235,1871,20,579174357,15004,20212,648934457,1837,20884,-13133,672,1851,Backlog clearing / catch-up activity,1956.952381,Severe urban pressure (migration hub)
bihar,sheohar,299367570,2016,1071,8,412370853,11183,16448,462125493,1704,21201,-10112,4753,1063,Backlog clearing / catch-up activity,4183.222222,Severe urban pressure (migration hub)
bihar,sitamarhi,1393995342,20491,18588,2675,1684095477,73029,80471,1874684720,9601,120507,-54441,40036,15913,Backlog clearing / catch-up activity,75.1038864,Severe urban pressure (migration hub)
bihar,siwan,2069673865,6073,8735,135,2831101609,46155,62459,3320762323,7963,86438,-37420,23979,8600,Backlog clearing / catch-up activity,1094.830882,Severe urban pressure (migration hub)
bihar,supaul,1183052358,5600,4342,153,1571227969,40202,53626,1782428133,4788,71142,-35860,17516,4189,Backlog clearing / catch-up activity,810.1818182,Severe urban pressure (migration hub)
bihar,vaishali,1906849862,8099,9289,45,2449591982,62594,79687,2767809851,8802,104123,-53305,24436,9244,Backlog clearing / catch-up activity,3995.869565,Severe urban pressure (migration hub)
chandigarh,chandigarh,134750972,2424,207,35,258665446,46113,21919,323939417,11837,61279,-45906,39360,172,Backlog clearing / catch-up activity,2311.055556,Severe urban pressure (migration hub)
chhattisgarh,balod,237810770,1556,66,4,412869078,25859,49542,467364168,4877,43117,-25793,-6425,62,Backlog clearing / catch-up activity,18531.8,Severe urban pressure (migration hub)
chhattisgarh,balodabazar-bhatapara,498158194,4299,545,33,736971001,52072,81964,0,0,0,-51527,-81964,512,Backlog clearing / catch-up activity,2410.705882,Severe urban pressure (migration hub)
chhattisgarh,balrampur-ramanujganj,234664409,4538,1486,69,298296086,19591,30719,0,0,0,-18105,-30719,1417,Backlog clearing / catch-up activity,438.8428571,Severe urban pressure (migration hub)
chhattisgarh,bastar,285635291,4411,1650,6,453193075,26658,62464,477885656,8500,59659,-25008,-2805,1644,Backlog clearing / catch-up activity,17446.14286,Severe urban pressure (migration hub)
chhattisgarh,bemetara,237800884,2353,286,11,343435243,33456,70085,373906193,3845,43946,-33170,-26139,275,Backlog clearing / catch-up activity,9502.583333,Severe urban pressure (migration hub)
chhattisgarh,bijapur,165639563,3432,1677,1362,240794524,9305,15385,248211361,843,8525,-7628,-6860,315,Backlog clearing / catch-up activity,17.54218635,Severe urban pressure (migration hub)
chhattisgarh,bilaspur,654695724,7385,1390,19,944937342,64991,118043,1080636461,11823,121021,-63601,2978,1371,Backlog clearing / catch-up activity,11953.2,Severe urban pressure (migration hub)
chhattisgarh,dakshin bastar dantewada,234876067,1515,279,24,536985759,12763,31139,0,0,0,-12484,-31139,255,Backlog clearing / catch-up activity,1245.56,Severe urban pressure (migration hub)
chhattisgarh,dhamtari,234993199,1851,84,3,520431194,26078,57668,518439121,2691,31367,-25994,-26301,81,Backlog clearing / catch-up activity,22258.75,Severe urban pressure (migration hub)
chhattisgarh,durg,496912566,3429,499,47,1024925367,74335,92219,1117619066,9053,56440,-73836,-35779,452,Backlog clearing / catch-up activity,3097.0625,Severe urban pressure (migration hub)
chhattisgarh,gariyaband,257773219,1291,219,6,683043418,16412,33511,708755951,1185,21230,-16193,-12281,213,Backlog clearing / catch-up activity,7820.142857,Severe urban pressure (migration hub)
chhattisgarh,gaurela-pendra-marwahi,44065522,738,310,75,98528502,668,1505,0,0,0,-358,-1505,235,Backlog clearing / catch-up activity,19.80263158,Severe urban pressure (migration hub)
chhattisgarh,janjgir-champa,559563328,4028,556,1,942680431,49253,118907,0,0,0,-48697,-118907,555,Backlog clearing / catch-up activity,59453.5,Severe urban pressure (migration hub)
chhattisgarh,jashpur,345892907,1639,821,2,564737598,29427,40884,637686093,7348,55331,-28606,14447,819,Backlog clearing / catch-up activity,32071.66667,Severe urban pressure (migration hub)
chhattisgarh,kabeerdham,215850751,2695,334,4,313200969,39450,48126,355982115,6813,64951,-39116,16825,330,Backlog clearing / catch-up activity,22615.4,Severe urban pressure (migration hub)
chhattisgarh,khairagarh-chhuikhadan-gandai,61478540,178,58,0,72785743,132,903,0,0,0,-74,-903,58,Backlog clearing / catch-up activity,903,Severe urban pressure (migration hub)
chhattisgarh,kondagaon,178923128,1798,919,9,287169726,16819,37831,302000727,4079,56579,-15900,18748,910,Backlog clearing / catch-up activity,9441,Severe urban pressure (migration hub)
chhattisgarh,korba,436552820,2996,476,13,729405679,27178,62153,791843043,5878,72546,-26702,10393,463,Backlog clearing / catch-up activity,9621.357143,Severe urban pressure (migration hub)
chhattisgarh,korea,238782261,1227,484,1,539277653,18195,38495,592998978,1888,25688,-17711,-12807,483,Backlog clearing / catch-up activity,32091.5,Severe urban pressure (migration hub)
chhattisgarh,mahasamund,224970914,2725,546,25,296978935,29103,63782,326092456,8284,123163,-28557,59381,521,Backlog clearing / catch-up activity,7190.192308,Severe urban pressure (migration hub)
chhattisgarh,manendragarh-chirmiri-bharatpur,68667408,186,104,0,79108756,90,503,0,0,0,14,-503,104,Healthy lifecycle,503,Severe urban pressure (migration hub)
chhattisgarh,mohla-manpur-ambagarh chouki,69796067,169,92,4,151892987,1074,3443,0,0,0,-982,-3443,88,Backlog clearing / catch-up activity,688.6,Severe urban pressure (migration hub)
chhattisgarh,mungeli,171855367,2546,345,2,272368112,27978,51156,290684874,3557,51356,-27633,200,343,Backlog clearing / catch-up activity,34170.66667,Severe urban pressure (migration hub)
chhattisgarh,narayanpur,34131609,437,284,8,46990634,6652,13473,47483769,1699,12788,-6368,-685,276,Backlog clearing / catch-up activity,2917.888889,Severe urban pressure (migration hub)
chhattisgarh,raigarh,402489226,4248,612,37,684889694,37384,127593,740971219,3361,58535,-36772,-69058,575,Backlog clearing / catch-up activity,4898.105263,Severe urban pressure (migration hub)
chhattisgarh,raipur,700059166,6043,750,57,1335914860,57000,122955,1442261219,11114,100688,-56250,-22267,693,Backlog clearing / catch-up activity,3855.913793,Severe urban pressure (migration hub)
chhattisgarh,rajnandgaon,360347913,3651,356,23,533891531,52103,91320,588956767,9417,113569,-51747,22249,333,Backlog clearing / catch-up activity,8537.041667,Severe urban pressure (migration hub)
chhattisgarh,sakti,124417449,368,77,2,192327144,634,3331,356398609,868,7929,-557,4598,75,Backlog clearing / catch-up activity,3753.333333,Severe urban pressure (migration hub)
chhattisgarh,sarangarh-bilaigarh,62829520,153,20,3,172174094,113,930,0,0,0,-93,-930,17,Backlog clearing / catch-up activity,232.5,Severe urban pressure (migration hub)
chhattisgarh,sukma,116611270,1172,736,118,163059006,13524,15184,174422717,1249,9810,-12788,-5374,618,Backlog clearing / catch-up activity,210.0336134,Severe urban pressure (migration hub)
chhattisgarh,surajpur,280927446,2217,662,6,411198133,23845,42900,431085618,2824,31031,-23183,-11869,656,Backlog clearing / catch-up activity,10561.57143,Severe urban pressure (migration hub)
chhattisgarh,surguja,291311341,2814,643,11,467763180,29241,48755,517955503,8190,95370,-28598,46615,632,Backlog clearing / catch-up activity,12010.41667,Severe urban pressure (migration hub)
chhattisgarh,uttar bastar kanker,498510005,2089,424,10,1107748253,25917,53174,0,0,0,-25493,-53174,414,Backlog clearing / catch-up activity,4834,Severe urban pressure (migration hub)
dadra and nagar haveli and daman and diu,dadra and nagar haveli,95887817,1294,224,38,216735427,10369,15672,0,0,0,-10145,-15672,186,Backlog clearing / catch-up activity,401.8461538,Severe urban pressure (migration hub)
dadra and nagar haveli and daman and diu,daman,34866690,103,16,8,163240210,2539,2484,0,0,0,-2523,-2484,8,Backlog clearing / catch-up activity,276,Severe urban pressure (migration hub)
dadra and nagar haveli and daman and diu,diu,28641470,83,8,4,126528800,1739,1378,0,0,0,-1731,-1378,4,Backlog clearing / catch-up activity,275.6,Severe urban pressure (migration hub)
delhi,central,52697812,2723,972,190,81962701,21389,26567,89994095,3383,31672,-20417,5105,782,Backlog clearing / catch-up activity,304.9162304,Severe urban pressure (migration hub)
delhi,east,61859425,7982,2422,222,79580306,48927,60743,90477583,23034,145816,-46505,85073,2200,Backlog clearing / catch-up activity,926.2735426,Severe urban pressure (migration hub)
delhi,new delhi,11661355,915,500,217,21672327,2109,1768,0,0,0,-1609,-1768,283,Backlog clearing / catch-up activity,8.110091743,Severe urban pressure (migration hub)
delhi,north,31690838,3097,1208,81,36972979,23042,30695,42474516,8352,66127,-21834,35432,1127,Backlog clearing / catch-up activity,1180.756098,Severe urban pressure (migration hub)
delhi,north east,56247670,9497,4070,63,68906528,72337,99011,0,0,0,-68267,-99011,4007,Backlog clearing / catch-up activity,1547.046875,Severe urban pressure (migration hub)
delhi,north west,130417837,12192,3231,351,164207252,117866,162523,0,0,0,-114635,-162523,2880,Backlog clearing / catch-up activity,461.7130682,Severe urban pressure (migration hub)
delhi,shahdara,21793701,1110,506,63,33791519,2406,4647,45348840,4021,19657,-1900,15010,443,Backlog clearing / catch-up activity,379.75,Severe urban pressure (migration hub)
delhi,south,142282979,9973,2709,462,187287940,85284,109491,206545266,17448,156597,-82575,47106,2247,Backlog clearing / catch-up activity,574.7041037,Severe urban pressure (migration hub)
delhi,south east,3960900,46,8,5,6821550,220,303,0,0,0,-212,-303,3,Backlog clearing / catch-up activity,50.5,Severe urban pressure (migration hub)
delhi,south west,152860235,6888,1911,348,232313825,57956,63747,0,0,0,-56045,-63747,1563,Backlog clearing / catch-up activity,182.6561605,Severe urban pressure (migration hub)
delhi,west,74499487,13876,4338,998,93867459,62529,86434,118298653,21384,161132,-58191,74698,3340,Backlog clearing / catch-up activity,247.8138138,Severe urban pressure (migration hub)
goa,north goa,352533796,1086,143,99,1249166466,16446,16925,0,0,0,-16303,-16925,44,Backlog clearing / catch-up activity,169.25,Severe urban pressure (migration hub)
goa,south goa,254331838,795,108,64,912344991,13761,12282,0,0,0,-13653,-12282,44,Backlog clearing / catch-up activity,188.9538462,Severe urban pressure (migration hub)
gujarat,ahmedabad,1755874336,16790,7834,836,3296596266,147697,224306,3669320238,22890,188337,-139863,-35969,6998,Backlog clearing / catch-up activity,493.0023895,Severe urban pressure (migration hub)
gujarat,amreli,431800050,3416,570,246,921191370,30515,30687,1022801228,1450,18075,-29945,-12612,324,Backlog clearing / catch-up activity,197.417004,Severe urban pressure (migration hub)
gujarat,anand,765282335,5564,808,533,1695807848,45268,54356,1778956766,2522,24210,-44460,-30146,275,Backlog clearing / catch-up activity,147.1273408,Severe urban pressure (migration hub)
gujarat,arvalli,250300943,1924,317,117,530884401,17494,9471,536251035,1070,4935,-17177,-4536,200,Backlog clearing / catch-up activity,122.0847458,Severe urban pressure (migration hub)
gujarat,banas kantha,658242141,15835,12382,2417,921854435,65710,67890,0,0,0,-53328,-67890,9965,Backlog clearing / catch-up activity,28.07692308,Severe urban pressure (migration hub)
gujarat,bharuch,521319166,3694,475,97,1126717864,33604,32841,1234231564,4214,28879,-33129,-3962,378,Backlog clearing / catch-up activity,629.7959184,Severe urban pressure (migration hub)
gujarat,bhavnagar,664746220,8342,1273,444,1187634217,57972,65110,1302002624,4121,36851,-56699,-28259,829,Backlog clearing / catch-up activity,229.1258427,Severe urban pressure (migration hub)
gujarat,botad,152636801,2287,470,169,311905014,9009,5069,331974237,742,4151,-8539,-918,301,Backlog clearing / catch-up activity,54.23529412,Severe urban pressure (migration hub)
gujarat,chhotaudepur,204970195,2195,1289,589,418552693,17052,13400,442817426,1117,5281,-15763,-8119,700,Backlog clearing / catch-up activity,31.66271186,Severe urban pressure (migration hub)
gujarat,dahod,559646851,10295,11141,1947,797436619,55681,59641,828954438,2998,23459,-44540,-36182,9194,Backlog clearing / catch-up activity,42.65913758,Severe urban pressure (migration hub)
gujarat,dang,1578852,531,179,162,0,0,0,0,0,0,179,0,17,Healthy lifecycle,0,Stable / low migration
gujarat,dangs,86837797,1061,186,74,152361201,11173,12676,151571843,993,3704,-10987,-8972,112,Backlog clearing / catch-up activity,218.4,Severe urban pressure (migration hub)
gujarat,devbhumi dwarka,208025957,1828,414,220,385348198,15988,6715,0,0,0,-15574,-6715,194,Backlog clearing / catch-up activity,30.38461538,Severe urban pressure (migration hub)
gujarat,gandhinagar,455464895,4041,815,735,1013281625,29413,36973,1201769209,5129,45306,-28598,8333,80,Backlog clearing / catch-up activity,111.7921196,Severe urban pressure (migration hub)
gujarat,gir somnath,270741431,4346,967,373,454464699,21326,11159,0,0,0,-20359,-11159,594,Backlog clearing / catch-up activity,29.8368984,Severe urban pressure (migration hub)
gujarat,jamnagar,600498588,4956,781,279,1194052062,36096,34997,1297708159,2730,29956,-35315,-5041,502,Backlog clearing / catch-up activity,231.975,Severe urban pressure (migration hub)
gujarat,junagadh,661193786,4806,549,92,1334530174,30495,60244,1383796679,2212,24875,-29946,-35369,457,Backlog clearing / catch-up activity,915.2580645,Severe urban pressure (migration hub)
gujarat,kachchh,650665641,6140,2561,520,1398193494,57990,49689,1523351627,5629,48545,-55429,-1144,2041,Backlog clearing / catch-up activity,188.5489443,Severe urban pressure (migration hub)
gujarat,kheda,760835880,5775,1186,516,1482530154,42806,57368,1551103309,2875,29508,-41620,-27860,670,Backlog clearing / catch-up activity,168.0386847,Severe urban pressure (migration hub)
gujarat,mahesana,611681639,5243,888,293,1277285468,37888,49186,1364719752,3940,31118,-37000,-18068,595,Backlog clearing / catch-up activity,273.1428571,Severe urban pressure (migration hub)
gujarat,mahisagar,240751239,2029,391,130,453135557,16043,11102,446888208,680,4879,-15652,-6223,261,Backlog clearing / catch-up activity,121.9923664,Severe urban pressure (migration hub)
gujarat,morbi,176681928,5521,1784,653,268984996,19220,9150,281693518,2492,14402,-17436,5252,1131,Backlog clearing / catch-up activity,36.01223242,Severe urban pressure (migration hub)
gujarat,narmada,191653693,1144,90,29,371930316,13313,19277,385701594,1774,8946,-13223,-10331,61,Backlog clearing / catch-up activity,940.7666667,Severe urban pressure (migration hub)
gujarat,navsari,368248874,2433,196,103,983041665,21799,18705,1121403693,2241,16207,-21603,-2498,93,Backlog clearing / catch-up activity,335.6923077,Severe urban pressure (migration hub)
gujarat,panch mahals,491165831,5646,1538,427,952316178,35468,56626,0,0,0,-33930,-56626,1111,Backlog clearing / catch-up activity,132.3037383,Severe urban pressure (migration hub)
gujarat,patan,364053068,5992,2203,715,638895402,32049,34098,665047803,2112,20129,-29846,-13969,1488,Backlog clearing / catch-up activity,75.73603352,Severe urban pressure (migration hub)
gujarat,porbandar,190959223,2002,330,181,366387796,12487,14462,413303536,972,9525,-12157,-4937,149,Backlog clearing / catch-up activity,131.7967033,Severe urban pressure (migration hub)
gujarat,rajkot,727687104,12333,3670,917,1338677195,70436,78462,1459388668,8075,104918,-66766,26456,2753,Backlog clearing / catch-up activity,199.7603486,Severe urban pressure (migration hub)
gujarat,sabar kantha,687226334,4638,2327,496,1383283243,33043,47333,0,0,0,-30716,-47333,1831,Backlog clearing / catch-up activity,95.23742455,Severe urban pressure (migration hub)
gujarat,surat,1154756033,18271,6245,652,2167726299,123585,123919,2426556625,28026,266087,-117340,142168,5593,Backlog clearing / catch-up activity,597.2526799,Severe urban pressure (migration hub)
gujarat,surendranagar,585160353,5564,2217,412,1019966289,37554,43972,1132820676,2002,23956,-35337,-20016,1805,Backlog clearing / catch-up activity,164.4745763,Severe urban pressure (migration hub)
gujarat,tapi,303363057,1845,205,150,610691955,14859,19489,597659605,1530,6473,-14654,-13016,55,Backlog clearing / catch-up activity,171.9337748,Severe urban pressure (migration hub)
gujarat,vadodara,1225298515,9224,2384,544,2195869228,64825,111518,2369476822,7450,61945,-62441,-49573,1840,Backlog clearing / catch-up activity,318.2807339,Severe urban pressure (migration hub)
gujarat,valsad,499120604,5748,1370,223,996671663,34907,37467,1060057029,5332,27652,-33537,-9815,1147,Backlog clearing / catch-up activity,290.7098214,Severe urban pressure (migration hub)
haryana,ambala,104792652,3019,120,33,200042408,23738,39392,209267040,3442,25200,-23618,-14192,87,Backlog clearing / catch-up activity,1899.764706,Severe urban pressure (migration hub)
haryana,bhiwani,140570559,3253,146,16,263988353,33774,49647,280772700,3403,24926,-33628,-24721,130,Backlog clearing / catch-up activity,4386.647059,Severe urban pressure (migration hub)
haryana,charkhi dadri,50882470,821,18,0,96660586,2785,5908,0,0,0,-2767,-5908,18,Backlog clearing / catch-up activity,5908,Severe urban pressure (migration hub)
haryana,faridabad,97540101,12498,3184,316,142927138,53178,51892,161442472,17079,119319,-49994,67427,2868,Backlog clearing / catch-up activity,540.0977918,Severe urban pressure (migration hub)
haryana,fatehabad,70797920,2468,88,9,114577423,26284,33780,116954006,3790,30260,-26196,-3520,79,Backlog clearing / catch-up activity,6404,Severe urban pressure (migration hub)
haryana,gurugram,154420863,7164,1834,401,248141051,31456,30935,296839456,11254,86526,-29622,55591,1433,Backlog clearing / catch-up activity,292.1915423,Severe urban pressure (migration hub)
haryana,hisar,112046679,4850,288,18,183961764,49121,54984,188703793,5662,46720,-48833,-8264,270,Backlog clearing / catch-up activity,5352.842105,Severe urban pressure (migration hub)
haryana,jhajjar,99010389,2475,96,8,188228495,22446,27909,189333236,2955,22721,-22350,-5188,88,Backlog clearing / catch-up activity,5625.555556,Severe urban pressure (migration hub)
haryana,jind,83992697,3691,91,0,113756259,31315,49279,122079745,4250,33135,-31224,-16144,91,Backlog clearing / catch-up activity,82414,Severe urban pressure (migration hub)
haryana,kaithal,80944651,2864,84,12,122164356,31311,39033,130189895,4023,26847,-31227,-12186,72,Backlog clearing / catch-up activity,5067.692308,Severe urban pressure (migration hub)
haryana,karnal,108288330,3800,168,8,160714703,29000,53394,173656278,5625,33187,-28832,-20207,160,Backlog clearing / catch-up activity,9620.111111,Severe urban pressure (migration hub)
haryana,kurukshetra,84394321,2297,76,11,134480907,20438,40127,139246237,2881,20210,-20362,-19917,65,Backlog clearing / catch-up activity,5028.083333,Severe urban pressure (migration hub)
haryana,mahendragarh,61511321,2524,142,24,82794692,18780,25039,84762905,2626,20664,-18638,-4375,118,Backlog clearing / catch-up activity,1828.12,Severe urban pressure (migration hub)
haryana,nuh,51926623,8037,728,60,61575239,35676,27153,69151115,5550,52612,-34948,25459,668,Backlog clearing / catch-up activity,1307.622951,Severe urban pressure (migration hub)
haryana,palwal,49042710,4319,317,4,60786243,27955,25047,69626277,6198,51766,-27638,26719,313,Backlog clearing / catch-up activity,15362.6,Severe urban pressure (migration hub)
haryana,panchkula,76797092,1260,88,5,167135869,16611,16303,199437895,4417,23523,-16523,7220,83,Backlog clearing / catch-up activity,6637.666667,Severe urban pressure (migration hub)
haryana,panipat,77153636,5434,530,46,132377624,28133,42072,142946606,9038,56817,-27603,14745,484,Backlog clearing / catch-up activity,2104.021277,Severe urban pressure (migration hub)
haryana,rewari,83044507,2301,147,6,151816935,22862,21647,163402007,5288,32666,-22715,11019,141,Backlog clearing / catch-up activity,7759,Severe urban pressure (migration hub)
haryana,rohtak,90709897,3111,182,61,164159223,22933,43084,172492321,3575,18902,-22751,-24182,121,Backlog clearing / catch-up activity,999.7741935,Severe urban pressure (migration hub)
haryana,sirsa,91191942,3112,187,2,144978930,36629,49388,157489192,4307,43059,-36442,-6329,185,Backlog clearing / catch-up activity,30815.66667,Severe urban pressure (migration hub)
haryana,sonipat,142448564,4215,261,37,226142286,30793,43234,238600645,6659,44125,-30532,891,224,Backlog clearing / catch-up activity,2298.921053,Severe urban pressure (migration hub)
haryana,yamunanagar,101085177,3281,108,8,173916884,30402,49213,183380462,5363,38638,-30294,-10575,100,Backlog clearing / catch-up activity,9761.222222,Severe urban pressure (migration hub)
himachal pradesh,bilaspur,108428284,965,13,0,318842921,8618,10326,0,0,0,-8605,-10326,13,Backlog clearing / catch-up activity,10326,Severe urban pressure (migration hub)
himachal pradesh,chamba,137166642,1522,58,7,302192467,14511,14254,0,0,0,-14453,-14254,51,Backlog clearing / catch-up activity,1781.75,Severe urban pressure (migration hub)
himachal pradesh,hamirpur,149128930,1157,14,1,539492695,9881,10605,0,0,0,-9867,-10605,13,Backlog clearing / catch-up activity,5302.5,Severe urban pressure (migration hub)
himachal pradesh,kangra,434401732,3791,74,22,1224133916,39468,37852,0,0,0,-39394,-37852,52,Backlog clearing / catch-up activity,1645.73913,Severe urban pressure (migration hub)
himachal pradesh,kinnaur,25299944,133,21,5,132695743,2076,1996,0,0,0,-2055,-1996,16,Backlog clearing / catch-up activity,332.6666667,Severe urban pressure (migration hub)
himachal pradesh,kullu,111980693,992,111,105,297989332,10178,8380,0,0,0,-10067,-8380,6,Backlog clearing / catch-up activity,79.05660377,Severe urban pressure (migration hub)
himachal pradesh,lahaul and spiti,10942935,68,2,0,106837854,682,725,0,0,0,-680,-725,2,Backlog clearing / catch-up activity,725,Severe urban pressure (migration hub)
himachal pradesh,mandi,260057253,2415,43,11,741841556,25092,29529,0,0,0,-25049,-29529,32,Backlog clearing / catch-up activity,2460.75,Severe urban pressure (migration hub)
himachal pradesh,shimla,182630592,1455,158,21,624961721,17678,16992,0,0,0,-17520,-16992,137,Backlog clearing / catch-up activity,772.3636364,Severe urban pressure (migration hub)
himachal pradesh,sirmaur,103954905,1475,61,7,203062936,12471,12796,0,0,0,-12410,-12796,54,Backlog clearing / catch-up activity,1599.5,Severe urban pressure (migration hub)
himachal pradesh,solan,109831365,1074,60,6,320318862,14547,14934,0,0,0,-14487,-14934,54,Backlog clearing / catch-up activity,2133.428571,Severe urban pressure (migration hub)
himachal pradesh,una,141410955,1207,18,0,429831619,13297,13894,0,0,0,-13279,-13894,18,Backlog clearing / catch-up activity,13894,Severe urban pressure (migration hub)
jammu and kashmir,anantnag,145485083,2911,315,34,226972814,24895,17393,0,0,0,-24580,-17393,281,Backlog clearing / catch-up activity,496.9428571,Severe urban pressure (migration hub)
jammu and kashmir,bandipora,50498013,1262,292,42,77955558,9787,7985,0,0,0,-9495,-7985,250,Backlog clearing / catch-up activity,185.6976744,Severe urban pressure (migration hub)
jammu and kashmir,baramulla,151098604,3064,502,64,248864559,25833,28204,0,0,0,-25331,-28204,438,Backlog clearing / catch-up activity,433.9076923,Severe urban pressure (migration hub)
jammu and kashmir,budgam,127959893,2409,235,16,227522897,21318,11506,0,0,0,-21083,-11506,219,Backlog clearing / catch-up activity,676.8235294,Severe urban pressure (migration hub)
jammu and kashmir,doda,110948605,3421,1000,32,184912516,17636,14504,0,0,0,-16636,-14504,968,Backlog clearing / catch-up activity,439.5151515,Severe urban pressure (migration hub)
jammu and kashmir,ganderbal,44958154,764,57,11,75576192,6600,5265,0,0,0,-6543,-5265,46,Backlog clearing / catch-up activity,438.75,Severe urban pressure (migration hub)
jammu and kashmir,jammu,323680647,3685,802,36,623936163,42016,44986,0,0,0,-41214,-44986,766,Backlog clearing / catch-up activity,1215.837838,Severe urban pressure (migration hub)
jammu and kashmir,kathua,149351164,2603,299,9,257805738,21347,14095,0,0,0,-21048,-14095,290,Backlog clearing / catch-up activity,1409.5,Severe urban pressure (migration hub)
jammu and kashmir,kishtwar,34254364,1035,196,6,45187043,9829,8472,0,0,0,-9633,-8472,190,Backlog clearing / catch-up activity,1210.285714,Severe urban pressure (migration hub)
jammu and kashmir,kulgam,29602348,943,218,9,60735167,12947,9306,0,0,0,-12729,-9306,209,Backlog clearing / catch-up activity,930.6,Severe urban pressure (migration hub)
jammu and kashmir,kupwara,82899957,2355,419,40,110535554,22777,21608,0,0,0,-22358,-21608,379,Backlog clearing / catch-up activity,527.0243902,Severe urban pressure (migration hub)
jammu and kashmir,poonch,50904995,2030,525,17,66269575,23434,15701,0,0,0,-22909,-15701,508,Backlog clearing / catch-up activity,872.2777778,Severe urban pressure (migration hub)
jammu and kashmir,pulwama,88339611,1705,111,15,167658836,19698,10368,0,0,0,-19587,-10368,96,Backlog clearing / catch-up activity,648,Severe urban pressure (migration hub)
jammu and kashmir,rajouri,121471878,2040,566,9,200908808,26957,20214,0,0,0,-26391,-20214,557,Backlog clearing / catch-up activity,2021.4,Severe urban pressure (migration hub)
jammu and kashmir,ramban,51911421,1294,564,6,75225980,20702,6677,0,0,0,-20138,-6677,558,Backlog clearing / catch-up activity,953.8571429,Severe urban pressure (migration hub)
jammu and kashmir,reasi,64867216,1088,525,8,113616078,11287,8307,0,0,0,-10762,-8307,517,Backlog clearing / catch-up activity,923,Severe urban pressure (migration hub)
jammu and kashmir,samba,50805745,523,45,9,118363059,6308,3563,0,0,0,-6263,-3563,36,Backlog clearing / catch-up activity,356.3,Severe urban pressure (migration hub)
jammu and kashmir,shopian,13268907,830,203,21,17291233,8560,5107,0,0,0,-8357,-5107,182,Backlog clearing / catch-up activity,232.1363636,Severe urban pressure (migration hub)
jammu and kashmir,srinagar,217223570,2801,254,134,393066472,30627,35165,0,0,0,-30373,-35165,120,Backlog clearing / catch-up activity,260.4814815,Severe urban pressure (migration hub)
jammu and kashmir,udhampur,132414827,2389,325,11,244560426,19244,18346,0,0,0,-18919,-18346,314,Backlog clearing / catch-up activity,1528.833333,Severe urban pressure (migration hub)
jharkhand,bokaro,1203807423,3432,2139,16,2261213927,42303,54236,2459108605,3728,35825,-40164,-18411,2123,Backlog clearing / catch-up activity,5297.705882,Severe urban pressure (migration hub)
jharkhand,chatra,365628741,3404,2701,34,484479808,27400,28159,489430068,3218,27957,-24699,-202,2667,Backlog clearing / catch-up activity,1603.314286,Severe urban pressure (migration hub)
jharkhand,deoghar,759021661,4423,3510,126,1018842341,27964,28442,1122275052,3183,30285,-24454,1843,3384,Backlog clearing / catch-up activity,462.4173228,Severe urban pressure (migration hub)
jharkhand,dhanbad,1752869095,6800,3937,87,3087613497,45466,81453,3387392395,4200,50570,-41529,-30883,3850,Backlog clearing / catch-up activity,1500.261364,Severe urban pressure (migration hub)
jharkhand,dumka,898250804,2718,2854,85,1307171924,28150,32743,1426904729,2984,32062,-25296,-681,2769,Backlog clearing / catch-up activity,753.5465116,Severe urban pressure (migration hub)
jharkhand,eastsinghbhum,1653755250,7486,2703,152,2877466435,52213,78914,0,0,0,-49510,-78914,2551,Backlog clearing / catch-up activity,515.7777778,Severe urban pressure (migration hub)
jharkhand,garhwa,591927367,4744,1509,15,875581229,34928,51823,937247493,3081,29367,-33419,-22456,1494,Backlog clearing / catch-up activity,5074.375,Severe urban pressure (migration hub)
jharkhand,giridih,1013363835,7543,6296,80,1274389265,45411,46777,1384225531,7275,50728,-39115,3951,6216,Backlog clearing / catch-up activity,1203.765432,Severe urban pressure (migration hub)
jharkhand,godda,540587443,3193,2051,16,756402012,36361,30080,812583292,3083,36398,-34310,6318,2035,Backlog clearing / catch-up activity,3910.470588,Severe urban pressure (migration hub)
jharkhand,gumla,790964588,4000,2440,93,1181015448,29592,47325,1211920514,3298,32837,-27152,-14488,2347,Backlog clearing / catch-up activity,852.787234,Severe urban pressure (migration hub)
jharkhand,hazaribagh,1158241390,4421,2170,31,2022207310,33484,36525,2302170915,4712,39338,-31314,2813,2139,Backlog clearing / catch-up activity,2370.71875,Severe urban pressure (migration hub)
jharkhand,jamtara,311399908,3126,1227,16,396169440,15162,18067,432855692,1364,19499,-13935,1432,1211,Backlog clearing / catch-up activity,2209.764706,Severe urban pressure (migration hub)
jharkhand,khunti,354927938,1406,1137,45,549490094,13178,24402,612960993,1039,12636,-12041,-11766,1092,Backlog clearing / catch-up activity,805.173913,Severe urban pressure (migration hub)
jharkhand,koderma,527387715,2258,1199,11,771696592,16041,19791,840986831,1557,12535,-14842,-7256,1188,Backlog clearing / catch-up activity,2693.833333,Severe urban pressure (migration hub)
jharkhand,latehar,409216181,1635,870,10,601804739,17808,18021,652903779,2390,23173,-16938,5152,860,Backlog clearing / catch-up activity,3744.909091,Severe urban pressure (migration hub)
jharkhand,lohardaga,265615206,1956,902,56,462725082,11507,20665,484443104,1200,9907,-10605,-10758,846,Backlog clearing / catch-up activity,536.3508772,Severe urban pressure (migration hub)
jharkhand,pakur,401418807,4142,2988,45,597230406,17828,14276,708206888,1946,22073,-14840,7797,2943,Backlog clearing / catch-up activity,790.1956522,Severe urban pressure (migration hub)
jharkhand,palamu,878857689,6592,1941,64,1269371065,48155,47210,1451052566,6811,54530,-46214,7320,1877,Backlog clearing / catch-up activity,1565.230769,Severe urban pressure (migration hub)
jharkhand,ramgarh,726282726,1872,1016,11,1353220110,14701,17003,1565079059,1752,18682,-13685,1679,1005,Backlog clearing / catch-up activity,2973.75,Severe urban pressure (migration hub)
jharkhand,ranchi,1501166587,9234,4507,334,2132202713,50163,92466,2279700008,6111,59751,-45656,-32715,4173,Backlog clearing / catch-up activity,454.3791045,Severe urban pressure (migration hub)
jharkhand,sahebganj,667386217,3686,2714,14,921951516,31095,23667,1057415891,3847,40519,-28381,16852,2700,Backlog clearing / catch-up activity,4279.066667,Severe urban pressure (migration hub)
jharkhand,saraikelakharsawan,987946233,2831,1205,29,1692042905,27157,40742,0,0,0,-25952,-40742,1176,Backlog clearing / catch-up activity,1358.066667,Severe urban pressure (migration hub)
jharkhand,simdega,337428277,1452,569,13,479415930,17642,37026,510319269,1292,15431,-17073,-21595,556,Backlog clearing / catch-up activity,3746.928571,Severe urban pressure (migration hub)
jharkhand,westsinghbhum,808212088,4472,2714,48,1532182907,50115,72374,0,0,0,-47401,-72374,2666,Backlog clearing / catch-up activity,1477.020408,Severe urban pressure (migration hub)
karnataka,bagalkote,1191930141,6244,888,84,1955137519,34610,33612,2094304276,8218,29064,-33722,-4548,804,Backlog clearing / catch-up activity,737.3647059,Severe urban pressure (migration hub)
karnataka,ballari,1573913008,5987,828,65,3387549459,47359,44916,3335632277,5721,32449,-46531,-12467,763,Backlog clearing / catch-up activity,1172.19697,Severe urban pressure (migration hub)
karnataka,belagavi,4103316285,12690,1430,120,8409422134,84401,79801,9104419111,11910,68395,-82971,-11406,1310,Backlog clearing / catch-up activity,1224.760331,Severe urban pressure (migration hub)
karnataka,bengaluru rural,416667582,3640,976,747,673927688,17351,17193,0,0,0,-16375,-17193,229,Backlog clearing / catch-up activity,22.98529412,Severe urban pressure (migration hub)
karnataka,bengaluru south,503680888,2697,557,28,833835632,18645,18404,0,0,0,-18088,-18404,529,Backlog clearing / catch-up activity,634.6206897,Severe urban pressure (migration hub)
karnataka,bengaluru urban,4936012003,37968,14855,7522,9304148809,176081,261813,0,0,0,-161226,-261813,7333,Backlog clearing / catch-up activity,34.80167486,Severe urban pressure (migration hub)
karnataka,bidar,775619970,3877,863,62,1165485832,35076,35969,1263830922,4586,26360,-34213,-9609,801,Backlog clearing / catch-up activity,989.3492063,Severe urban pressure (migration hub)
karnataka,chamarajanagar,724977095,2581,249,23,1596193924,15883,14561,1729840895,1481,11843,-15634,-2718,226,Backlog clearing / catch-up activity,1100.166667,Severe urban pressure (migration hub)
karnataka,chikkaballapura,567636842,2743,270,14,873385747,18203,18088,926734816,3148,24071,-17933,5983,256,Backlog clearing / catch-up activity,2810.6,Severe urban pressure (migration hub)
karnataka,chikkamagaluru,925825534,2258,190,38,2754869692,14968,19039,3059610429,1964,15672,-14778,-3367,152,Backlog clearing / catch-up activity,890.025641,Severe urban pressure (migration hub)
karnataka,chitradurga,886516697,3940,296,43,1601991220,27209,27145,1682826652,4723,32205,-26913,5060,253,Backlog clearing / catch-up activity,1348.863636,Severe urban pressure (migration hub)
karnataka,dakshina kannada,1719933761,5812,493,79,3700645191,36152,33640,0,0,0,-35659,-33640,414,Backlog clearing / catch-up activity,420.5,Severe urban pressure (migration hub)
karnataka,davanagere,1163735117,4740,374,44,2638678755,35396,48193,2660600064,4063,25232,-35022,-22961,330,Backlog clearing / catch-up activity,1631.666667,Severe urban pressure (migration hub)
karnataka,dharwad,986899361,4658,337,19,1704928817,34846,39375,1796047455,7015,34131,-34509,-5244,318,Backlog clearing / catch-up activity,3675.3,Severe urban pressure (migration hub)
karnataka,gadag,729419672,4132,343,20,1146227174,19888,16605,1295244541,4234,16167,-19545,-438,323,Backlog clearing / catch-up activity,1560.571429,Severe urban pressure (migration hub)
karnataka,hassan,1217374082,3219,175,19,3242901085,26091,24213,3861328677,4791,34443,-25916,10230,156,Backlog clearing / catch-up activity,2932.8,Severe urban pressure (migration hub)
karnataka,haveri,833953007,3940,265,59,1441859487,27378,31410,1585412482,8073,37238,-27113,5828,206,Backlog clearing / catch-up activity,1144.133333,Severe urban pressure (migration hub)
karnataka,kalaburagi,1885080073,7600,1243,86,3480482569,59206,59795,3591099481,8472,43491,-57963,-16304,1157,Backlog clearing / catch-up activity,1187.195402,Severe urban pressure (migration hub)
karnataka,kodagu,362232653,1075,72,41,898783191,7592,7872,1057608958,841,8039,-7520,167,31,Backlog clearing / catch-up activity,378.8333333,Severe urban pressure (migration hub)
karnataka,kolar,705034244,3785,296,31,1205655983,28235,28024,1322785096,5095,32405,-27939,4381,265,Backlog clearing / catch-up activity,1888.40625,Severe urban pressure (migration hub)
karnataka,koppal,736691628,4644,614,49,1061102816,28737,24711,1184790313,6148,27594,-28123,2883,565,Backlog clearing / catch-up activity,1046.1,Severe urban pressure (migration hub)
karnataka,mandya,905773532,3351,141,43,1761291600,28975,29812,1933870042,2998,26553,-28834,-3259,98,Backlog clearing / catch-up activity,1281.022727,Severe urban pressure (migration hub)
karnataka,mysuru,1889193402,6383,650,249,4949796336,45833,50712,5088583144,4612,41583,-45183,-9129,401,Backlog clearing / catch-up activity,369.18,Severe urban pressure (migration hub)
karnataka,raichur,1026902333,7425,1939,102,1402501314,49456,50891,1490120430,6174,33327,-47517,-17564,1837,Backlog clearing / catch-up activity,817.6504854,Severe urban pressure (migration hub)
karnataka,shivamogga,1417920074,4020,309,43,3496904386,26771,27895,3832351192,3486,25396,-26462,-2499,266,Backlog clearing / catch-up activity,1211.159091,Severe urban pressure (migration hub)
karnataka,tumakuru,1896021508,5461,317,47,4726528115,42870,53707,4903060307,4893,35837,-42553,-17870,270,Backlog clearing / catch-up activity,1865.5,Severe urban pressure (migration hub)
karnataka,udupi,1032073484,3302,202,43,2444594446,18551,12739,2968298522,2809,16697,-18349,3958,159,Backlog clearing / catch-up activity,669,Severe urban pressure (migration hub)
karnataka,uttara kannada,1049907598,3169,208,30,2593948291,21541,17082,0,0,0,-21333,-17082,178,Backlog clearing / catch-up activity,551.0322581,Severe urban pressure (migration hub)
karnataka,vijayanagara,549352025,1792,229,56,762207628,4753,13027,1096962175,1207,9205,-4524,-3822,173,Backlog clearing / catch-up activity,390.0350877,Severe urban pressure (migration hub)
karnataka,vijayapura,2141815590,7830,1694,94,3751428291,48504,45084,4093745766,6830,36153,-46810,-8931,1600,Backlog clearing / catch-up activity,855.1263158,Severe urban pressure (migration hub)
karnataka,yadgir,937580690,5327,1335,107,1484210987,29900,28036,1595994669,5104,20531,-28565,-7505,1228,Backlog clearing / catch-up activity,449.6944444,Severe urban pressure (migration hub)
kerala,alappuzha,1641833757,2501,841,131,5129986316,31377,46775,5615330093,2434,31566,-30536,-15209,710,Backlog clearing / catch-up activity,593.4924242,Severe urban pressure (migration hub)
kerala,ernakulam,2378326528,4126,1717,332,6143729742,55478,76160,6725691981,4807,51002,-53761,-25158,1385,Backlog clearing / catch-up activity,381.8678679,Severe urban pressure (migration hub)
kerala,idukki,759622006,1377,252,28,2409856148,17757,24651,2493502664,1399,12534,-17505,-12117,224,Backlog clearing / catch-up activity,1282.241379,Severe urban pressure (migration hub)
kerala,kannur,2082582957,3942,1623,230,4765399990,45080,63254,5041625039,3939,46742,-43457,-16512,1393,Backlog clearing / catch-up activity,476.1731602,Severe urban pressure (migration hub)
kerala,kasaragod,1067453877,2899,797,62,2129536606,33231,33817,2326901711,1945,23615,-32434,-10202,735,Backlog clearing / catch-up activity,911.6190476,Severe urban pressure (migration hub)
kerala,kollam,2084641449,3749,969,213,5454960389,45162,68730,5912514980,3877,42679,-44193,-26051,756,Backlog clearing / catch-up activity,520.6028037,Severe urban pressure (migration hub)
kerala,kottayam,1547179914,2422,761,52,5294277177,28427,42529,5684914951,2265,26905,-27666,-15624,709,Backlog clearing / catch-up activity,1310.075472,Severe urban pressure (migration hub)
kerala,kozhikode,2137998771,4506,1812,202,4467038184,55579,83306,4915463745,7534,65408,-53767,-17898,1610,Backlog clearing / catch-up activity,732.5812808,Severe urban pressure (migration hub)
kerala,malappuram,3119374349,9995,3829,245,5166365234,85920,114585,5658083740,8030,121183,-82091,6598,3584,Backlog clearing / catch-up activity,958.4065041,Severe urban pressure (migration hub)
kerala,palakkad,2487257237,5075,1291,169,6430892949,52290,86996,6577434177,3362,40556,-50999,-46440,1122,Backlog clearing / catch-up activity,750.3058824,Severe urban pressure (migration hub)
kerala,pathanamthitta,1040778913,1372,456,72,4425111712,18411,34708,4834019447,1892,18507,-17955,-16201,384,Backlog clearing / catch-up activity,728.9726027,Severe urban pressure (migration hub)
kerala,thiruvananthapuram,2524707444,4738,1311,432,6115936377,49069,82059,6688864145,4485,50714,-47758,-31345,879,Backlog clearing / catch-up activity,306.6351039,Severe urban pressure (migration hub)
kerala,thrissur,2791876316,4842,1572,485,7495067878,51589,77411,8206074456,4408,48848,-50017,-28563,1087,Backlog clearing / catch-up activity,259.7921811,Severe urban pressure (migration hub)
kerala,wayanad,451371971,1244,222,18,975420050,11323,21331,1035936962,1277,12189,-11101,-9142,204,Backlog clearing / catch-up activity,1764.210526,Severe urban pressure (migration hub)
ladakh,kargil,90292861,747,255,8,158639315,3078,1898,89903409,392,1151,-2823,-747,247,Backlog clearing / catch-up activity,338.7777778,Severe urban pressure (migration hub)
ladakh,leh,37673080,258,52,12,133806432,2364,2241,75541818,234,1392,-2312,-849,40,Backlog clearing / catch-up activity,279.4615385,Severe urban pressure (migration hub)
lakshadweep,lakshadweep,106478558,189,10,1,371309862,2028,2367,354928535,170,1006,-2018,-1361,9,Backlog clearing / catch-up activity,1686.5,Severe urban pressure (migration hub)
madhya pradesh,agar-malwa,168948974,2035,383,29,221545643,5102,10022,0,0,0,-4719,-10022,354,Backlog clearing / catch-up activity,334.0666667,Severe urban pressure (migration hub)
madhya pradesh,alirajpur,192779986,3202,3262,369,272449120,31963,25236,0,0,0,-28701,-25236,2893,Backlog clearing / catch-up activity,68.20540541,Severe urban pressure (migration hub)
madhya pradesh,anuppur,325524317,2782,317,13,503779367,29696,34022,0,0,0,-29379,-34022,304,Backlog clearing / catch-up activity,2430.142857,Severe urban pressure (migration hub)
madhya pradesh,ashoknagar,205454103,5210,2548,261,280256281,40545,24992,0,0,0,-37997,-24992,2287,Backlog clearing / catch-up activity,95.38931298,Severe urban pressure (migration hub)
madhya pradesh,balaghat,580877823,6020,504,28,785415247,66311,45814,0,0,0,-65807,-45814,476,Backlog clearing / catch-up activity,1579.793103,Severe urban pressure (migration hub)
madhya pradesh,barwani,261936311,12636,8219,665,326960924,70211,55283,0,0,0,-61992,-55283,7554,Backlog clearing / catch-up activity,83.00750751,Severe urban pressure (migration hub)
madhya pradesh,betul,525839416,6688,1145,129,776425461,65712,75488,0,0,0,-64567,-75488,1016,Backlog clearing / catch-up activity,580.6769231,Severe urban pressure (migration hub)
madhya pradesh,bhind,578046502,8329,4700,638,768510487,47034,28538,0,0,0,-42334,-28538,4062,Backlog clearing / catch-up activity,44.66040689,Severe urban pressure (migration hub)
madhya pradesh,bhopal,748649512,10968,1396,154,1146986676,82346,87580,0,0,0,-80950,-87580,1242,Backlog clearing / catch-up activity,565.0322581,Severe urban pressure (migration hub)
madhya pradesh,burhanpur,124745845,6457,2716,387,178808379,31718,36692,0,0,0,-29002,-36692,2329,Backlog clearing / catch-up activity,94.56701031,Severe urban pressure (migration hub)
madhya pradesh,chhatarpur,607562988,11039,5752,365,767815154,79804,57343,0,0,0,-74052,-57343,5387,Backlog clearing / catch-up activity,156.6748634,Severe urban pressure (migration hub)
madhya pradesh,chhindwara,665667715,8093,593,47,954748046,59656,66670,0,0,0,-59063,-66670,546,Backlog clearing / catch-up activity,1388.958333,Severe urban pressure (migration hub)
madhya pradesh,damoh,349279449,4907,870,47,469774740,66943,47549,0,0,0,-66073,-47549,823,Backlog clearing / catch-up activity,990.6041667,Severe urban pressure (migration hub)
madhya pradesh,datia,271091564,3906,1734,42,343857236,25418,16877,0,0,0,-23684,-16877,1692,Backlog clearing / catch-up activity,392.4883721,Severe urban pressure (migration hub)
madhya pradesh,dewas,386497629,8179,1881,82,525790108,53203,57127,0,0,0,-51322,-57127,1799,Backlog clearing / catch-up activity,688.2771084,Severe urban pressure (migration hub)
madhya pradesh,dhar,459845611,8549,3376,423,652955143,70968,58479,0,0,0,-67592,-58479,2953,Backlog clearing / catch-up activity,137.9221698,Severe urban pressure (migration hub)
madhya pradesh,dindori,224544615,2352,224,1,318501877,31247,23118,0,0,0,-31023,-23118,223,Backlog clearing / catch-up activity,11559,Severe urban pressure (migration hub)
madhya pradesh,guna,383278528,7324,2145,62,575414837,72067,46450,0,0,0,-69922,-46450,2083,Backlog clearing / catch-up activity,737.3015873,Severe urban pressure (migration hub)
madhya pradesh,gwalior,563626568,11897,5422,823,708776679,62514,50169,0,0,0,-57092,-50169,4599,Backlog clearing / catch-up activity,60.88470874,Severe urban pressure (migration hub)
madhya pradesh,harda,183611711,2179,466,18,304941248,18376,23436,0,0,0,-17910,-23436,448,Backlog clearing / catch-up activity,1233.473684,Severe urban pressure (migration hub)
madhya pradesh,indore,815094513,16285,4845,605,1078646264,97642,102169,0,0,0,-92797,-102169,4240,Backlog clearing / catch-up activity,168.5957096,Severe urban pressure (migration hub)
madhya pradesh,jabalpur,668849215,10373,1630,99,969416409,75951,68601,0,0,0,-74321,-68601,1531,Backlog clearing / catch-up activity,686.01,Severe urban pressure (migration hub)
madhya pradesh,jhabua,257736296,6470,6424,328,348376709,48191,31607,0,0,0,-41767,-31607,6096,Backlog clearing / catch-up activity,96.06990881,Severe urban pressure (migration hub)
madhya pradesh,katni,440517963,8108,2237,112,551716822,50516,35794,0,0,0,-48279,-35794,2125,Backlog clearing / catch-up activity,316.7610619,Severe urban pressure (migration hub)
madhya pradesh,khandwa (east nimar),698597892,5424,2626,101,1116179024,42481,46703,0,0,0,-39855,-46703,2525,Backlog clearing / catch-up activity,457.872549,Severe urban pressure (migration hub)
madhya pradesh,khargone (west nimar),647496709,10232,4630,507,1134735977,74897,82990,0,0,0,-70267,-82990,4123,Backlog clearing / catch-up activity,163.3661417,Severe urban pressure (migration hub)
madhya pradesh,maihar,119501078,365,20,19,208392415,196,1325,0,0,0,-176,-1325,1,Backlog clearing / catch-up activity,66.25,Severe urban pressure (migration hub)
madhya pradesh,mandla,426851346,4464,245,5,579079781,31743,23173,0,0,0,-31498,-23173,240,Backlog clearing / catch-up activity,3862.166667,Severe urban pressure (migration hub)
madhya pradesh,mandsaur,511363291,7238,740,24,645726485,41952,38663,0,0,0,-41212,-38663,716,Backlog clearing / catch-up activity,1546.52,Severe urban pressure (migration hub)
madhya pradesh,mauganj,104555329,365,54,1,171178648,83,978,0,0,0,-29,-978,53,Backlog clearing / catch-up activity,489,Severe urban pressure (migration hub)
madhya pradesh,morena,378125934,13849,7442,665,451948398,80554,44100,0,0,0,-73112,-44100,6777,Backlog clearing / catch-up activity,66.21621622,Severe urban pressure (migration hub)
madhya pradesh,narmadapuram,513608347,5618,868,40,861078402,42336,50441,0,0,0,-41468,-50441,828,Backlog clearing / catch-up activity,1230.268293,Severe urban pressure (migration hub)
madhya pradesh,narsimhapur,688674261,4664,1367,92,1101497493,38401,29564,0,0,0,-37034,-29564,1275,Backlog clearing / catch-up activity,317.8924731,Severe urban pressure (migration hub)
madhya pradesh,neemuch,340942723,4066,714,17,483942724,32382,20040,0,0,0,-31668,-20040,697,Backlog clearing / catch-up activity,1113.333333,Severe urban pressure (migration hub)
madhya pradesh,niwari,50069433,113,15,9,140293775,1036,969,0,0,0,-1021,-969,6,Backlog clearing / catch-up activity,96.9,Severe urban pressure (migration hub)
madhya pradesh,pandhurna,28334039,62,2,28,88839373,78,299,0,0,0,-76,-299,-26,Backlog clearing / catch-up activity,10.31034483,Severe urban pressure (migration hub)
madhya pradesh,panna,345677383,6676,2288,128,432581460,48955,35593,0,0,0,-46667,-35593,2160,Backlog clearing / catch-up activity,275.9147287,Severe urban pressure (migration hub)
madhya pradesh,raisen,494335348,6014,1149,120,653700340,64313,43559,0,0,0,-63164,-43559,1029,Backlog clearing / catch-up activity,359.9917355,Severe urban pressure (migration hub)
madhya pradesh,rajgarh,414455975,6132,1421,31,535070853,72995,68140,0,0,0,-71574,-68140,1390,Backlog clearing / catch-up activity,2129.375,Severe urban pressure (migration hub)
madhya pradesh,ratlam,374523078,6248,1380,73,484286594,78617,45714,0,0,0,-77237,-45714,1307,Backlog clearing / catch-up activity,617.7567568,Severe urban pressure (migration hub)
madhya pradesh,rewa,879697309,8983,1378,28,1159768860,106704,64207,0,0,0,-105326,-64207,1350,Backlog clearing / catch-up activity,2214.034483,Severe urban pressure (migration hub)
madhya pradesh,sagar,734905001,11119,1747,381,973250783,101962,66932,0,0,0,-100215,-66932,1366,Backlog clearing / catch-up activity,175.2146597,Severe urban pressure (migration hub)
madhya pradesh,satna,764583811,10879,1842,118,990343607,89494,64787,0,0,0,-87652,-64787,1724,Backlog clearing / catch-up activity,544.4285714,Severe urban pressure (migration hub)
madhya pradesh,sehore,419662871,4984,1253,53,677527609,50540,54456,0,0,0,-49287,-54456,1200,Backlog clearing / catch-up activity,1008.444444,Severe urban pressure (migration hub)
madhya pradesh,seoni,460692235,5425,477,10,616023691,40141,34198,0,0,0,-39664,-34198,467,Backlog clearing / catch-up activity,3108.909091,Severe urban pressure (migration hub)
madhya pradesh,shahdol,362842129,4133,758,59,586630965,42254,41265,0,0,0,-41496,-41265,699,Backlog clearing / catch-up activity,687.75,Severe urban pressure (migration hub)
madhya pradesh,shajapur,509423257,5663,968,18,753478892,55018,55440,0,0,0,-54050,-55440,950,Backlog clearing / catch-up activity,2917.894737,Severe urban pressure (migration hub)
madhya pradesh,sheopur,160526344,3696,3077,137,194823899,29797,19612,0,0,0,-26720,-19612,2940,Backlog clearing / catch-up activity,142.115942,Severe urban pressure (migration hub)
madhya pradesh,shivpuri,505068233,6846,4544,734,680446419,81056,68785,0,0,0,-76512,-68785,3810,Backlog clearing / catch-up activity,93.58503401,Severe urban pressure (migration hub)
madhya pradesh,sidhi,274032609,5405,619,15,380133583,64387,36521,0,0,0,-63768,-36521,604,Backlog clearing / catch-up activity,2282.5625,Severe urban pressure (migration hub)
madhya pradesh,singrauli,285294014,5365,788,18,419659588,67122,26015,0,0,0,-66334,-26015,770,Backlog clearing / catch-up activity,1369.210526,Severe urban pressure (migration hub)
madhya pradesh,tikamgarh,494424863,5506,1440,23,639881065,80179,58024,0,0,0,-78739,-58024,1417,Backlog clearing / catch-up activity,2417.666667,Severe urban pressure (migration hub)
madhya pradesh,ujjain,643071991,12024,1644,92,819766292,81341,56265,0,0,0,-79697,-56265,1552,Backlog clearing / catch-up activity,605,Severe urban pressure (migration hub)
madhya pradesh,umaria,228233706,4219,839,34,293684187,18498,16173,0,0,0,-17659,-16173,805,Backlog clearing / catch-up activity,462.0857143,Severe urban pressure (migration hub)
madhya pradesh,vidisha,343039920,7800,2108,170,449342644,62510,51270,0,0,0,-60402,-51270,1938,Backlog clearing / catch-up activity,299.8245614,Severe urban pressure (migration hub)
maharashtra,ahilyanagar,1612404078,9425,2410,157,3676080705,157491,180758,4274630063,7440,199281,-155081,18523,2253,Backlog clearing / catch-up activity,2405.310127,Severe urban pressure (migration hub)
maharashtra,akola,515680218,3908,681,48,1045181895,48187,111269,1053618543,2333,49479,-47506,-61790,633,Backlog clearing / catch-up activity,3280.571429,Severe urban pressure (migration hub)
maharashtra,amravati,829895080,5721,991,107,1530660225,94105,203865,1552959982,4805,77051,-93114,-126814,884,Backlog clearing / catch-up activity,2601.074074,Severe urban pressure (migration hub)
maharashtra,beed,731257146,7803,2544,269,1394724094,106428,134093,1488348341,7916,146287,-103884,12194,2275,Backlog clearing / catch-up activity,1038.444444,Severe urban pressure (migration hub)
maharashtra,bhandara,343336697,1798,53,6,721540510,29335,61604,736582657,1390,30918,-29282,-30686,47,Backlog clearing / catch-up activity,13217.42857,Severe urban pressure (migration hub)
maharashtra,buldhana,942430804,6680,1172,142,1993276493,80812,151035,1994538154,3650,120181,-79640,-30854,1030,Backlog clearing / catch-up activity,1896.615385,Severe urban pressure (migration hub)
maharashtra,chandrapur,550104353,3932,355,86,1171901338,58395,130662,1204166130,2894,99889,-58040,-30773,269,Backlog clearing / catch-up activity,2650.011494,Severe urban pressure (migration hub)
maharashtra,chhatrapati sambhajinagar,1190902096,12681,5167,394,1888720797,99701,184842,0,0,0,-94534,-184842,4773,Backlog clearing / catch-up activity,467.9544304,Severe urban pressure (migration hub)
maharashtra,dharashiv,521066569,3308,712,37,977205990,55494,82220,1414736504,2618,93299,-54782,11079,675,Backlog clearing / catch-up activity,4618.921053,Severe urban pressure (migration hub)
maharashtra,dhule,618281810,7137,4748,513,924071266,67087,111567,941450809,3191,51948,-62339,-59619,4235,Backlog clearing / catch-up activity,318.1225681,Severe urban pressure (migration hub)
maharashtra,gadchiroli,333036863,2032,249,22,544429603,35925,92146,588218067,2149,46739,-35676,-45407,227,Backlog clearing / catch-up activity,6038.478261,Severe urban pressure (migration hub)
maharashtra,gondia,300850072,2782,106,6,840665986,31467,55983,905166808,3094,58416,-31361,2433,100,Backlog clearing / catch-up activity,16342.71429,Severe urban pressure (migration hub)
maharashtra,hingoli,238677601,6290,1434,367,389290813,43491,65502,411300159,2339,83734,-42057,18232,1067,Backlog clearing / catch-up activity,405.5326087,Severe urban pressure (migration hub)
maharashtra,jalgaon,1181664647,10278,2514,198,2098783358,137745,239019,2157835437,6622,126677,-135231,-112342,2316,Backlog clearing / catch-up activity,1837.668342,Severe urban pressure (migration hub)
maharashtra,jalna,478677535,4523,907,19,878462843,66432,109470,909510920,3175,63848,-65525,-45622,888,Backlog clearing / catch-up activity,8665.9,Severe urban pressure (migration hub)
maharashtra,kolhapur,1263505337,6266,945,72,2566643324,108822,134578,2691055473,4951,108936,-107877,-25642,873,Backlog clearing / catch-up activity,3335.808219,Severe urban pressure (migration hub)
maharashtra,latur,554861703,5727,1596,148,833851453,64817,152978,884824627,5080,101516,-63221,-51462,1448,Backlog clearing / catch-up activity,1708.013423,Severe urban pressure (migration hub)
maharashtra,mumbai,2128694246,12629,4155,235,3995757635,138420,269989,4328242517,9782,141177,-134265,-128812,3920,Backlog clearing / catch-up activity,1742.228814,Severe urban pressure (migration hub)
maharashtra,mumbai suburban,1271833496,12642,4876,775,2446052020,92480,69817,0,0,0,-87604,-69817,4101,Backlog clearing / catch-up activity,89.97036082,Severe urban pressure (migration hub)
maharashtra,nagpur,1316022586,9950,1461,222,2322430686,101340,207830,2510164486,10795,120154,-99879,-87676,1239,Backlog clearing / catch-up activity,1470.780269,Severe urban pressure (migration hub)
maharashtra,nanded,866454907,9014,2384,335,1489864357,109937,193892,1604704415,6103,207137,-107553,13245,2049,Backlog clearing / catch-up activity,1193.53869,Severe urban pressure (migration hub)
maharashtra,nandurbar,530500722,7657,2617,238,906996979,61961,121990,849139329,2487,34306,-59344,-87684,2379,Backlog clearing / catch-up activity,653.958159,Severe urban pressure (migration hub)
maharashtra,nashik,1548340709,15959,5624,303,2547270747,193789,319902,2739570616,12702,200298,-188165,-119604,5321,Backlog clearing / catch-up activity,1711.184211,Severe urban pressure (migration hub)
maharashtra,palghar,648532899,7216,3086,164,1178691552,83908,59128,1266117744,7379,89553,-80822,30425,2922,Backlog clearing / catch-up activity,901.0969697,Severe urban pressure (migration hub)
maharashtra,parbhani,439280671,4961,985,199,636054231,68078,95184,700350947,3709,98678,-67093,3494,786,Backlog clearing / catch-up activity,969.31,Severe urban pressure (migration hub)
maharashtra,pune,2687977164,23637,6256,1131,4712686025,259934,279737,5079515800,26863,331203,-253678,51466,5125,Backlog clearing / catch-up activity,539.6996466,Severe urban pressure (migration hub)
maharashtra,raigad,1165670396,6931,1515,100,2810108777,72064,82481,3291808943,6256,107871,-70549,25390,1415,Backlog clearing / catch-up activity,1884.673267,Severe urban pressure (migration hub)
maharashtra,ratnagiri,622420560,2289,212,32,2318768640,53607,73378,2321275088,2464,46833,-53395,-26545,180,Backlog clearing / catch-up activity,3642.757576,Severe urban pressure (migration hub)
maharashtra,sangli,857299906,5611,1772,133,2150409280,84858,111871,2135901216,3191,80141,-83086,-31730,1639,Backlog clearing / catch-up activity,1432.925373,Severe urban pressure (migration hub)
maharashtra,satara,957555322,5004,687,156,2549926835,95581,91638,2585113736,3422,84034,-94894,-7604,531,Backlog clearing / catch-up activity,1118.929936,Severe urban pressure (migration hub)
maharashtra,sindhudurg,332445645,1096,55,22,1502717524,19381,23469,1544383614,944,24823,-19326,1354,33,Backlog clearing / catch-up activity,2099.652174,Severe urban pressure (migration hub)
maharashtra,solapur,1208664335,9349,2383,259,2331138080,141347,157773,2526637740,6173,225846,-138964,68073,2124,Backlog clearing / catch-up activity,1475.457692,Severe urban pressure (migration hub)
maharashtra,thane,1703409649,28706,13312,949,2934952972,189693,329821,3137598863,30085,342002,-176381,12181,12363,Backlog clearing / catch-up activity,707.1821053,Severe urban pressure (migration hub)
maharashtra,wardha,298919923,1812,82,5,650010147,36922,74485,601818351,1756,23421,-36840,-51064,77,Backlog clearing / catch-up activity,16317.66667,Severe urban pressure (migration hub)
maharashtra,washim,296416268,3007,296,45,646151871,40915,84307,623938544,1351,49436,-40619,-34871,251,Backlog clearing / catch-up activity,2907.456522,Severe urban pressure (migration hub)
maharashtra,yavatmal,693186137,5926,1285,201,1174917072,82393,206365,1214092990,3866,169822,-81108,-36543,1084,Backlog clearing / catch-up activity,1862.311881,Severe urban pressure (migration hub)
manipur,bishnupur,148689504,512,540,42,213094902,19154,10024,238538511,4651,32725,-18614,22701,498,Backlog clearing / catch-up activity,994.1627907,Severe urban pressure (migration hub)
manipur,chandel,159024014,240,467,5,374501095,4470,3069,401536402,982,6395,-4003,3326,462,Backlog clearing / catch-up activity,1577.333333,Severe urban pressure (migration hub)
manipur,churachandpur,255232146,1242,3235,105,511257006,10665,6485,570890967,1728,12831,-7430,6346,3130,Backlog clearing / catch-up activity,182.2264151,Severe urban pressure (migration hub)
manipur,imphal east,355393124,547,527,9,719536610,35938,20713,0,0,0,-35411,-20713,518,Backlog clearing / catch-up activity,2071.3,Severe urban pressure (migration hub)
manipur,imphal west,395944419,635,522,32,840392372,35103,23950,0,0,0,-34581,-23950,490,Backlog clearing / catch-up activity,725.7575758,Severe urban pressure (migration hub)
manipur,jiribam,54067863,53,88,1,102569910,432,1285,135964757,294,1470,-344,185,87,Backlog clearing / catch-up activity,1377.5,Severe urban pressure (migration hub)
manipur,kakching,47706192,38,66,1,117675512,1314,654,169358309,600,2725,-1248,2071,65,Backlog clearing / catch-up activity,1689.5,Severe urban pressure (migration hub)
manipur,pherzawl,4774217,1,10,0,1593749,2,0,46117018,14,162,8,162,10,Healthy lifecycle,162,Severe urban pressure (migration hub)
manipur,senapati,473085049,760,693,15,1129837237,11897,8794,1308735628,4171,17665,-11204,8871,678,Backlog clearing / catch-up activity,1653.6875,Severe urban pressure (migration hub)
manipur,tamenglong,188448282,297,611,29,345089862,3887,3423,380870964,1980,6715,-3276,3292,582,Backlog clearing / catch-up activity,337.9333333,Severe urban pressure (migration hub)
manipur,thoubal,272730038,416,597,6,508087405,31755,21952,516038631,6937,48002,-31158,26050,591,Backlog clearing / catch-up activity,9993.428571,Severe urban pressure (migration hub)
manipur,ukhrul,147896323,342,412,14,291017757,5987,5968,326004410,1727,11521,-5575,5553,398,Backlog clearing / catch-up activity,1165.933333,Severe urban pressure (migration hub)
meghalaya,east garo hills,141042832,1012,3354,1672,112650593,900,1386,0,0,0,2454,-1386,1682,Moderate biometric drop-off,0.828451883,Stable / low migration
meghalaya,east jaintia hills,108665497,983,2346,1796,122149641,1906,650,0,0,0,440,-650,550,Healthy lifecycle,0.361713968,Stable / low migration
meghalaya,east khasi hills,1038884685,4255,14542,9932,1351339139,8142,10278,0,0,0,6400,-10278,4610,Moderate biometric drop-off,1.034732709,Moderate migration
meghalaya,eastern west khasi hills,44414717,3,222,587,6344960,2,6,0,0,0,220,-6,-365,Healthy lifecycle,0.010204082,Stable / low migration
meghalaya,north garo hills,167134478,457,1831,757,172747808,737,352,0,0,0,1094,-352,1074,Healthy lifecycle,0.464379947,Stable / low migration
meghalaya,ri bhoi,287454401,1338,4573,3366,296947230,2634,1464,0,0,0,1939,-1464,1207,Healthy lifecycle,0.434808435,Stable / low migration
meghalaya,south garo hills,178668263,568,2417,1446,140553121,540,609,0,0,0,1877,-609,971,Healthy lifecycle,0.420870767,Stable / low migration
meghalaya,south west garo hills,138969044,2417,1652,883,166762724,2326,1807,0,0,0,-674,-1807,769,Backlog clearing / catch-up activity,2.044117647,Moderate migration
meghalaya,south west khasi hills,134036013,789,1532,1114,148311974,1726,1104,0,0,0,-194,-1104,418,Backlog clearing / catch-up activity,0.990134529,Stable / low migration
meghalaya,west garo hills,389887041,4543,6772,4539,439913507,7358,21293,0,0,0,-586,-21293,2233,Backlog clearing / catch-up activity,4.690088106,High migration activity
meghalaya,west jaintia hills,191147566,2386,5560,3795,192733564,3707,1547,0,0,0,1853,-1547,1765,Healthy lifecycle,0.407534247,Stable / low migration
meghalaya,west khasi hills,119725044,2410,8148,5310,119760700,2999,2336,0,0,0,5149,-2336,2838,Moderate biometric drop-off,0.439841838,Stable / low migration
mizoram,aizawl,384499045,762,235,60,828719341,14553,7341,945741301,789,6083,-14318,-1258,175,Backlog clearing / catch-up activity,220.0655738,Severe urban pressure (migration hub)
mizoram,champhai,138558790,803,261,89,253227230,5328,2788,322507289,440,4069,-5067,1281,172,Backlog clearing / catch-up activity,76.18888889,Severe urban pressure (migration hub)
mizoram,hnahthial,1593142,2,0,0,11948180,10,7,24692951,4,43,-10,36,0,Backlog clearing / catch-up activity,50,Severe urban pressure (migration hub)
mizoram,khawzawl,13537450,5,7,24,6370540,6,2,20704300,8,27,1,25,-17,Healthy lifecycle,1.16,Moderate migration
mizoram,kolasib,97917849,188,51,35,276238582,4048,1937,311265320,575,2499,-3997,562,16,Backlog clearing / catch-up activity,123.2222222,Severe urban pressure (migration hub)
mizoram,lawngtlai,140241371,1149,371,97,251796515,5932,3525,265342946,352,3543,-5561,18,274,Backlog clearing / catch-up activity,72.12244898,Severe urban pressure (migration hub)
mizoram,lunglei,148181106,540,115,69,325039070,5866,3647,384784709,394,2453,-5751,-1194,46,Backlog clearing / catch-up activity,87.14285714,Severe urban pressure (migration hub)
mizoram,mamit,107519187,208,32,3,343264939,5628,1972,386270721,193,1181,-5596,-791,29,Backlog clearing / catch-up activity,788.25,Severe urban pressure (migration hub)
mizoram,saitual,6370117,2,3,7,18314062,26,24,65292975,8,119,-23,95,-4,Backlog clearing / catch-up activity,17.875,Severe urban pressure (migration hub)
mizoram,serchhip,44586309,76,16,6,175165538,1859,1622,164814724,226,865,-1843,-757,10,Backlog clearing / catch-up activity,355.2857143,Severe urban pressure (migration hub)
mizoram,siaha,82878114,373,179,102,122723304,2204,935,0,0,0,-2025,-935,77,Backlog clearing / catch-up activity,9.077669903,Severe urban pressure (migration hub)
nagaland,chumoukedima,55797585,37,95,50,98841601,245,406,220002109,192,1136,-150,730,45,Backlog clearing / catch-up activity,30.23529412,Severe urban pressure (migration hub)
nagaland,dimapur,228773961,1118,1787,276,454415574,8196,13532,448799533,561,5384,-6409,-8148,1511,Backlog clearing / catch-up activity,68.28880866,Severe urban pressure (migration hub)
nagaland,kiphire,59097224,163,687,51,69479179,1403,2346,78263900,201,1015,-716,-1331,636,Backlog clearing / catch-up activity,64.63461538,Severe urban pressure (migration hub)
nagaland,kohima,192882802,560,945,107,450332904,2928,8928,429612166,228,2136,-1983,-6792,838,Backlog clearing / catch-up activity,102.4444444,Severe urban pressure (migration hub)
nagaland,longleng,53507818,205,634,48,112605789,573,1605,121390679,132,688,61,-917,586,Healthy lifecycle,46.79591837,Severe urban pressure (migration hub)
nagaland,meluri,9565368,2,13,2,55000866,160,705,35073016,8,88,-147,-617,11,Backlog clearing / catch-up activity,264.3333333,Severe urban pressure (migration hub)
nagaland,mokokchung,118992601,132,304,43,336215233,1959,5892,331423325,151,1725,-1655,-4167,261,Backlog clearing / catch-up activity,173.1136364,Severe urban pressure (migration hub)
nagaland,mon,187673804,618,1415,169,249965544,4615,7588,269930668,675,2633,-3200,-4955,1246,Backlog clearing / catch-up activity,60.12352941,Severe urban pressure (migration hub)
nagaland,niuland,17536491,14,15,2,44638386,96,129,82102761,30,189,-81,60,13,Backlog clearing / catch-up activity,106,Severe urban pressure (migration hub)
nagaland,noklak,45521682,70,241,38,60695576,211,461,69480462,62,385,30,-76,203,Healthy lifecycle,21.69230769,Severe urban pressure (migration hub)
nagaland,peren,74927858,510,843,100,154637393,1563,2277,169782701,330,968,-720,-1309,743,Backlog clearing / catch-up activity,32.12871287,Severe urban pressure (migration hub)
nagaland,phek,148262131,307,692,39,268625131,1473,5651,243914715,140,1006,-781,-4645,653,Backlog clearing / catch-up activity,166.425,Severe urban pressure (migration hub)
nagaland,shamator,45521796,3,213,23,42327284,36,134,67883380,51,382,177,248,190,Healthy lifecycle,21.5,Severe urban pressure (migration hub)
nagaland,tseminyu,15145071,7,15,10,26304589,40,87,41449664,7,84,-25,-3,5,Backlog clearing / catch-up activity,15.54545455,Severe urban pressure (migration hub)
nagaland,tuensang,126181020,512,975,84,248369189,2365,6265,250765067,354,2577,-1390,-3688,891,Backlog clearing / catch-up activity,104.0235294,Severe urban pressure (migration hub)
nagaland,wokha,68552852,118,409,30,121170694,1727,3808,117971843,62,751,-1318,-3057,379,Backlog clearing / catch-up activity,147.0645161,Severe urban pressure (migration hub)
nagaland,zunheboto,118945744,131,581,47,223481354,1318,4978,215530156,168,1720,-737,-3258,534,Backlog clearing / catch-up activity,139.5416667,Severe urban pressure (migration hub)
odisha,angul,940548966,2706,418,13,2184738456,30020,28331,2373003356,2997,19152,-29602,-9179,405,Backlog clearing / catch-up activity,3391.642857,Severe urban pressure (migration hub)
odisha,balangir,1364553416,4503,962,56,2697662102,44447,41994,2933141590,4143,26279,-43485,-15715,906,Backlog clearing / catch-up activity,1197.77193,Severe urban pressure (migration hub)
odisha,balasore,2391373486,5736,1348,4,6130866392,60977,52952,6742536006,6440,31176,-59629,-21776,1344,Backlog clearing / catch-up activity,16825.6,Severe urban pressure (migration hub)
odisha,bargarh,1054531690,4347,784,2,1741176731,38467,31929,1889411654,3770,23073,-37683,-8856,782,Backlog clearing / catch-up activity,18334,Severe urban pressure (migration hub)
odisha,bhadrak,1466886565,3668,1137,14,3081895345,48993,37286,3309463699,5089,23139,-47856,-14147,1123,Backlog clearing / catch-up activity,4028.333333,Severe urban pressure (migration hub)
odisha,boudh,508260284,1305,267,2,941016927,12240,12596,1017230775,1239,7086,-11973,-5510,265,Backlog clearing / catch-up activity,6560.666667,Severe urban pressure (migration hub)
odisha,cuttack,1880042559,4227,1027,15,4445765628,61404,62550,4408901219,4098,27037,-60377,-35513,1012,Backlog clearing / catch-up activity,5599.1875,Severe urban pressure (migration hub)
odisha,deogarh,215839549,774,93,5,344114507,7724,6533,384056171,773,4956,-7631,-1577,88,Backlog clearing / catch-up activity,1914.833333,Severe urban pressure (migration hub)
odisha,dhenkanal,868337699,2436,519,8,1594719912,33615,32224,1710076980,3250,17792,-33096,-14432,511,Backlog clearing / catch-up activity,5557.333333,Severe urban pressure (migration hub)
odisha,gajapati,526718659,1652,300,18,1023001498,27310,22059,1066388674,2295,10717,-27010,-11342,282,Backlog clearing / catch-up activity,1725.052632,Severe urban pressure (migration hub)
odisha,ganjam,2785797067,6920,983,9,5616192159,87510,77270,6265932809,9251,54226,-86527,-23044,974,Backlog clearing / catch-up activity,13149.6,Severe urban pressure (migration hub)
odisha,jagatsinghapur,1188503281,3427,356,24,3051951115,27273,26276,2930537200,2027,12218,-26917,-14058,332,Backlog clearing / catch-up activity,1539.76,Severe urban pressure (migration hub)
odisha,jajpur,2024698095,4024,917,51,4695606627,44827,39483,4971875644,4527,25814,-43910,-13669,866,Backlog clearing / catch-up activity,1255.711538,Severe urban pressure (migration hub)
odisha,jharsuguda,458623801,1076,83,0,1123130830,12159,10424,1204561133,1293,9024,-12076,-1400,83,Backlog clearing / catch-up activity,19448,Severe urban pressure (migration hub)
odisha,kalahandi,998910898,3313,1023,56,1558884357,37311,40832,1707496451,4274,28360,-36288,-12472,967,Backlog clearing / catch-up activity,1213.894737,Severe urban pressure (migration hub)
odisha,kandhamal,802436753,2608,421,8,1494353287,25107,24349,1673404917,3700,18767,-24686,-5582,413,Backlog clearing / catch-up activity,4790.666667,Severe urban pressure (migration hub)
odisha,kendrapara,1206832924,3145,724,48,2435548919,35536,31567,2533589555,3711,21269,-34812,-10298,676,Backlog clearing / catch-up activity,1078.285714,Severe urban pressure (migration hub)
odisha,keonjhar,1422715745,4265,960,15,2570119911,41299,43199,2831619170,4727,29090,-40339,-14109,945,Backlog clearing / catch-up activity,4518.0625,Severe urban pressure (migration hub)
odisha,khordha,2121441584,4438,803,176,6644394908,47022,55258,6521875379,4290,27783,-46219,-27475,627,Backlog clearing / catch-up activity,469.1581921,Severe urban pressure (migration hub)
odisha,koraput,1029140578,3233,1133,45,2038999869,39430,45394,2300286748,3986,25762,-38297,-19632,1088,Backlog clearing / catch-up activity,1546.869565,Severe urban pressure (migration hub)
odisha,malkangiri,408004978,2353,468,2,683827492,21300,16987,730435312,2661,12394,-20832,-4593,466,Backlog clearing / catch-up activity,9793.666667,Severe urban pressure (migration hub)
odisha,mayurbhanj,2298382523,6209,1780,35,3895703585,68887,65441,4314350030,7201,41025,-67107,-24416,1745,Backlog clearing / catch-up activity,2957.388889,Severe urban pressure (migration hub)
odisha,nabarangpur,695302911,4466,2045,77,895492906,39201,36792,978012777,3353,23127,-37156,-13665,1968,Backlog clearing / catch-up activity,768.1923077,Severe urban pressure (migration hub)
odisha,nayagarh,844578027,2143,275,11,1783161928,27785,26124,1816253748,2340,12083,-27510,-14041,264,Backlog clearing / catch-up activity,3183.916667,Severe urban pressure (migration hub)
odisha,nuapada,352409821,1677,391,2,532445728,21773,19362,585307113,2040,11065,-21382,-8297,389,Backlog clearing / catch-up activity,10142.33333,Severe urban pressure (migration hub)
odisha,puri,1164221326,3104,542,4,2524025639,33639,31063,2708260589,3189,21212,-33097,-9851,538,Backlog clearing / catch-up activity,10455,Severe urban pressure (migration hub)
odisha,rayagada,680091518,2506,665,3,1199500544,26771,24580,1362439740,3137,19011,-26106,-5569,662,Backlog clearing / catch-up activity,10897.75,Severe urban pressure (migration hub)
odisha,sambalpur,817267094,2215,292,1,1563080548,23488,21523,1764314047,2597,18412,-23196,-3111,291,Backlog clearing / catch-up activity,19967.5,Severe urban pressure (migration hub)
odisha,sonepur,550725988,1617,272,1,977961976,15699,12530,1078441687,1894,9347,-15427,-3183,271,Backlog clearing / catch-up activity,10938.5,Severe urban pressure (migration hub)
odisha,sundargarh,1875095922,3890,725,16,5346269797,45402,49399,5562776383,3731,27390,-44677,-22009,709,Backlog clearing / catch-up activity,4517,Severe urban pressure (migration hub)
puducherry,karaikal,233478623,509,38,12,690682050,5433,9480,656544140,1224,3842,-5395,-5638,26,Backlog clearing / catch-up activity,1024.769231,Severe urban pressure (migration hub)
puducherry,puducherry,870839429,2218,150,32,2264513952,20099,28954,2231699881,2982,20046,-19949,-8908,118,Backlog clearing / catch-up activity,1484.848485,Severe urban pressure (migration hub)
punjab,amritsar,221509150,7615,1752,234,411232217,49242,81693,456338947,5531,78749,-47490,-2944,1518,Backlog clearing / catch-up activity,682.7319149,Severe urban pressure (migration hub)
punjab,barnala,61460457,925,75,8,126763594,14804,16023,133133113,471,8736,-14729,-7287,67,Backlog clearing / catch-up activity,2751,Severe urban pressure (migration hub)
punjab,bathinda,118321308,2369,280,18,232435702,37763,44591,248178354,1825,29631,-37483,-14960,262,Backlog clearing / catch-up activity,3906.421053,Severe urban pressure (migration hub)
punjab,faridkot,51112404,790,96,10,105737336,13503,19554,107687453,694,11143,-13407,-8411,86,Backlog clearing / catch-up activity,2790.636364,Severe urban pressure (migration hub)
punjab,fatehgarh sahib,63792621,888,134,13,173709528,15780,16852,0,0,0,-15646,-16852,121,Backlog clearing / catch-up activity,1203.714286,Severe urban pressure (migration hub)
punjab,fazilka,73465301,1624,245,10,129132535,26444,26170,136583856,1670,23082,-26199,-3088,235,Backlog clearing / catch-up activity,4477.454545,Severe urban pressure (migration hub)
punjab,ferozepur,131921983,1606,151,5,373244443,22957,31847,410529448,1531,24514,-22806,-7333,146,Backlog clearing / catch-up activity,9393.5,Severe urban pressure (migration hub)
punjab,gurdaspur,193243379,4425,544,126,375383737,35244,66521,413097316,4169,53576,-34700,-12945,418,Backlog clearing / catch-up activity,945.6456693,Severe urban pressure (migration hub)
punjab,hoshiarpur,196955243,3500,384,217,554038344,30355,49060,556123287,2504,35031,-29971,-14029,167,Backlog clearing / catch-up activity,385.7385321,Severe urban pressure (migration hub)
punjab,jalandhar,265599728,3287,694,71,707883789,42528,74847,701518740,2180,35975,-41834,-38872,623,Backlog clearing / catch-up activity,1539.194444,Severe urban pressure (migration hub)
punjab,kapurthala,90666387,2061,438,1208,245522927,16071,29385,250873830,709,12063,-15633,-17322,-770,Backlog clearing / catch-up activity,34.28287841,Severe urban pressure (migration hub)
punjab,ludhiana,326059569,12135,4492,824,730736096,70449,91292,787838531,5826,90589,-65957,-703,3668,Backlog clearing / catch-up activity,220.4618182,Severe urban pressure (migration hub)
punjab,malerkotla,34340911,708,145,8,65869207,5251,7066,70605854,778,10102,-5106,3036,137,Backlog clearing / catch-up activity,1907.555556,Severe urban pressure (migration hub)
punjab,mansa,66884928,996,103,11,131521121,19929,28889,132908753,1077,15871,-19826,-13018,92,Backlog clearing / catch-up activity,3730,Severe urban pressure (migration hub)
punjab,moga,99055273,1327,155,41,247369941,20190,32395,253639600,1108,18838,-20035,-13557,114,Backlog clearing / catch-up activity,1219.833333,Severe urban pressure (migration hub)
punjab,pathankot,60794720,1029,66,15,137378884,11796,11659,137125877,1107,11389,-11730,-270,51,Backlog clearing / catch-up activity,1440.5,Severe urban pressure (migration hub)
punjab,patiala,130024632,4254,746,83,231223367,50446,52806,251999399,6552,67219,-49700,14413,663,Backlog clearing / catch-up activity,1428.869048,Severe urban pressure (migration hub)
punjab,rupnagar,93795945,1138,87,13,228634434,15681,24039,235110667,764,10127,-15594,-13912,74,Backlog clearing / catch-up activity,2440.428571,Severe urban pressure (migration hub)
punjab,s.a.s nagar,175515988,3109,672,108,400628388,27663,25371,0,0,0,-26991,-25371,564,Backlog clearing / catch-up activity,232.7614679,Severe urban pressure (migration hub)
punjab,sangrur,105989950,2079,187,39,215827531,33585,38011,217454980,1021,20593,-33398,-17418,148,Backlog clearing / catch-up activity,1465.1,Severe urban pressure (migration hub)
punjab,shaheed bhagat singh nagar,106643056,969,120,44,502711649,12613,18441,0,0,0,-12493,-18441,76,Backlog clearing / catch-up activity,409.8,Severe urban pressure (migration hub)
punjab,sri muktsar sahib,111537282,1456,167,8,276172437,23037,31084,0,0,0,-22870,-31084,159,Backlog clearing / catch-up activity,3453.777778,Severe urban pressure (migration hub)
punjab,tarn taran,146763400,2636,267,20,300204313,22816,43378,0,0,0,-22549,-43378,247,Backlog clearing / catch-up activity,2065.619048,Severe urban pressure (migration hub)
rajasthan,ajmer,754856679,8939,2606,146,1237757762,72166,56122,1346486136,9359,71519,-69560,15397,2460,Backlog clearing / catch-up activity,868.3061224,Severe urban pressure (migration hub)
rajasthan,alwar,809147760,15493,6935,288,1104121269,114428,85262,1247718495,11112,73435,-107493,-11827,6647,Backlog clearing / catch-up activity,549.1245675,Severe urban pressure (migration hub)
rajasthan,balotra,344022,1,0,0,2064187,0,6,87738862,26,477,0,471,0,Healthy lifecycle,483,Severe urban pressure (migration hub)
rajasthan,banswara,336738321,4108,2780,27,468256560,49426,34976,514381809,3998,43338,-46646,8362,2753,Backlog clearing / catch-up activity,2796.928571,Severe urban pressure (migration hub)
rajasthan,baran,263425387,4409,1524,76,361964323,37541,34363,385055876,4140,32950,-36017,-1413,1448,Backlog clearing / catch-up activity,874.1948052,Severe urban pressure (migration hub)
rajasthan,barmer,588719956,10197,4832,82,739828854,106820,72225,807300327,6906,44959,-101988,-27266,4750,Backlog clearing / catch-up activity,1411.855422,Severe urban pressure (migration hub)
rajasthan,bharatpur,657042068,10063,6289,170,800356418,72375,55193,878768690,7851,54075,-66086,-1118,6119,Backlog clearing / catch-up activity,638.994152,Severe urban pressure (migration hub)
rajasthan,bhilwara,587553792,7600,2792,178,791806252,59034,50328,856263876,5497,47110,-56242,-3218,2614,Backlog clearing / catch-up activity,544.3463687,Severe urban pressure (migration hub)
rajasthan,bikaner,504151307,7293,5223,191,685211063,56511,59950,767761880,6707,49970,-51288,-9980,5032,Backlog clearing / catch-up activity,572.5,Severe urban pressure (migration hub)
rajasthan,bundi,295924480,3291,1239,116,431111901,30557,26310,452776635,3079,22728,-29318,-3582,1123,Backlog clearing / catch-up activity,419.1282051,Severe urban pressure (migration hub)
rajasthan,chittorgarh,498292798,3817,2112,123,892058768,32969,25065,1030873668,3973,29817,-30857,4752,1989,Backlog clearing / catch-up activity,442.5967742,Severe urban pressure (migration hub)
rajasthan,churu,494046827,7731,4477,157,656750509,61712,57334,691886274,6289,42826,-57235,-14508,4320,Backlog clearing / catch-up activity,633.9240506,Severe urban pressure (migration hub)
rajasthan,dausa,443267975,4160,1656,47,635186624,51154,43321,669295016,4544,24815,-49498,-18506,1609,Backlog clearing / catch-up activity,1419.5,Severe urban pressure (migration hub)
rajasthan,deeg,12525112,13,31,12,38216796,7,151,200076457,117,1182,24,1031,19,Healthy lifecycle,102.5384615,Severe urban pressure (migration hub)
rajasthan,dholpur,302109744,5665,2570,145,370666666,43973,22767,409701419,6622,35322,-41403,12555,2425,Backlog clearing / catch-up activity,397.869863,Severe urban pressure (migration hub)
rajasthan,didwana-kuchaman,682836,2,0,0,2731472,1,7,0,0,0,-1,-7,0,Backlog clearing / catch-up activity,7,Severe urban pressure (migration hub)
rajasthan,dungarpur,451145207,3792,2495,52,623920755,47921,29902,675445102,3390,30515,-45426,613,2443,Backlog clearing / catch-up activity,1139.943396,Severe urban pressure (migration hub)
rajasthan,ganganagar,429202174,3935,1168,41,737344052,42465,49133,776577650,3868,35808,-41297,-13325,1127,Backlog clearing / catch-up activity,2022.404762,Severe urban pressure (migration hub)
rajasthan,hanumangarh,306993401,3520,1172,41,488468278,39142,45932,508261954,5036,41327,-37970,-4605,1131,Backlog clearing / catch-up activity,2077.595238,Severe urban pressure (migration hub)
rajasthan,jaipur,1385385760,20801,8341,717,1860334798,143069,172008,2023857439,23819,192891,-134728,20883,7624,Backlog clearing / catch-up activity,508.2158774,Severe urban pressure (migration hub)
rajasthan,jaisalmer,197988951,1624,1046,49,332774694,22890,16941,352780072,1739,14600,-21844,-2341,997,Backlog clearing / catch-up activity,630.82,Severe urban pressure (migration hub)
rajasthan,jalore,434718941,8017,5624,245,559431356,48035,42149,766966053,2615,25370,-42411,-16779,5379,Backlog clearing / catch-up activity,274.4674797,Severe urban pressure (migration hub)
rajasthan,jhalawar,362744855,4863,1871,56,456045056,39124,33012,498126627,4327,29317,-37253,-3695,1815,Backlog clearing / catch-up activity,1093.491228,Severe urban pressure (migration hub)
rajasthan,jhunjhunu,862225825,5810,1751,82,1456990918,44345,55054,1757697194,4803,36378,-42594,-18676,1669,Backlog clearing / catch-up activity,1101.590361,Severe urban pressure (migration hub)
rajasthan,jodhpur,828819326,14241,6287,916,1110350240,103643,90403,1200365324,8345,71835,-97356,-18568,5371,Backlog clearing / catch-up activity,176.9225736,Severe urban pressure (migration hub)
rajasthan,karauli,449119222,5721,2478,104,612771164,46145,26502,659170110,4982,28033,-43667,1531,2374,Backlog clearing / catch-up activity,519.3809524,Severe urban pressure (migration hub)
rajasthan,kota,535674195,5325,1758,103,732719350,42740,39892,807870512,6644,51092,-40982,11200,1655,Backlog clearing / catch-up activity,874.8461538,Severe urban pressure (migration hub)
rajasthan,nagaur,893411538,11311,5105,204,1230218145,96994,87867,1296170447,7592,49606,-91889,-38261,4901,Backlog clearing / catch-up activity,670.6,Severe urban pressure (migration hub)
rajasthan,pali,688741224,6120,2521,116,1033788270,66283,74423,1089519920,4320,36007,-63762,-38416,2405,Backlog clearing / catch-up activity,943.8461538,Severe urban pressure (migration hub)
rajasthan,pratapgarh,218264941,2603,1077,17,317174345,30646,20380,357976186,2830,27482,-29569,7102,1060,Backlog clearing / catch-up activity,2659,Severe urban pressure (migration hub)
rajasthan,rajsamand,380652807,3004,1320,25,644625672,30377,25118,687012883,3439,25741,-29057,623,1295,Backlog clearing / catch-up activity,1956.115385,Severe urban pressure (migration hub)
rajasthan,salumbar,313038,1,0,0,313026,0,1,51415332,20,193,0,192,0,Healthy lifecycle,194,Severe urban pressure (migration hub)
rajasthan,sawai madhopur,434936437,4433,1941,86,647291630,39499,32937,0,0,0,-37558,-32937,1855,Backlog clearing / catch-up activity,378.5862069,Severe urban pressure (migration hub)
rajasthan,sikar,928718489,7938,2794,174,1414946789,66580,75062,1512672161,6406,47145,-63786,-27917,2620,Backlog clearing / catch-up activity,698.3257143,Severe urban pressure (migration hub)
rajasthan,sirohi,322933999,5333,4573,375,438775508,33474,30605,471355625,3034,24442,-28901,-6163,4198,Backlog clearing / catch-up activity,146.4015957,Severe urban pressure (migration hub)
rajasthan,tonk,276674679,4052,1544,60,378362480,38321,32425,410628443,4882,33756,-36777,1331,1484,Backlog clearing / catch-up activity,1084.934426,Severe urban pressure (migration hub)
rajasthan,udaipur,727398738,8460,5649,187,991222480,86286,70938,1059806645,6622,60497,-80637,-10441,5462,Backlog clearing / catch-up activity,699.1223404,Severe urban pressure (migration hub)
sikkim,gangtok,339810662,399,288,19,822623387,4215,3763,1040810936,564,6181,-3927,2418,269,Backlog clearing / catch-up activity,497.2,Severe urban pressure (migration hub)
sikkim,gyalshing,155531321,294,365,44,280840845,2642,2491,336124521,291,3082,-2277,591,321,Backlog clearing / catch-up activity,123.8444444,Severe urban pressure (migration hub)
sikkim,mangan,59706473,78,28,1,204181339,706,374,558734272,210,1702,-678,1328,27,Backlog clearing / catch-up activity,1038,Severe urban pressure (migration hub)
sikkim,namchi,181334118,278,360,40,430483822,1845,2230,1402019754,446,7080,-1485,4850,320,Backlog clearing / catch-up activity,227.0731707,Severe urban pressure (migration hub)
tamil nadu,ariyalur,654942920,1878,389,80,1290456645,25226,37044,0,0,0,-24837,-37044,309,Backlog clearing / catch-up activity,457.3333333,Severe urban pressure (migration hub)
tamil nadu,chengalpattu,399764256,841,295,72,1028450090,3675,2060,0,0,0,-3380,-2060,223,Backlog clearing / catch-up activity,28.21917808,Severe urban pressure (migration hub)
tamil nadu,chennai,1938169818,7521,2067,195,3214490221,100744,101975,0,0,0,-98677,-101975,1872,Backlog clearing / catch-up activity,520.2806122,Severe urban pressure (migration hub)
tamil nadu,coimbatore,2563896241,6992,1691,43,4915270091,64845,125946,0,0,0,-63154,-125946,1648,Backlog clearing / catch-up activity,2862.409091,Severe urban pressure (migration hub)
tamil nadu,cuddalore,1934260276,7362,1051,44,3114556731,77746,70218,0,0,0,-76695,-70218,1007,Backlog clearing / catch-up activity,1560.4,Severe urban pressure (migration hub)
tamil nadu,dharmapuri,1025101032,4751,796,37,1593626108,53814,32612,0,0,0,-53018,-32612,759,Backlog clearing / catch-up activity,858.2105263,Severe urban pressure (migration hub)
tamil nadu,dindigul,1484326836,4596,1337,12,2650289360,53236,102343,0,0,0,-51899,-102343,1325,Backlog clearing / catch-up activity,7872.538462,Severe urban pressure (migration hub)
tamil nadu,erode,1591193878,4837,991,8,2894016986,55824,72875,0,0,0,-54833,-72875,983,Backlog clearing / catch-up activity,8097.222222,Severe urban pressure (migration hub)
tamil nadu,kallakurichi,352206102,863,145,36,670470144,2045,1968,0,0,0,-1900,-1968,109,Backlog clearing / catch-up activity,53.18918919,Severe urban pressure (migration hub)
tamil nadu,kancheepuram,2623275936,9627,3269,88,4433968891,105952,99500,0,0,0,-102683,-99500,3181,Backlog clearing / catch-up activity,1117.977528,Severe urban pressure (migration hub)
tamil nadu,kanniyakumari,1828119328,3920,217,18,5543774053,45992,43438,0,0,0,-45775,-43438,199,Backlog clearing / catch-up activity,2286.210526,Severe urban pressure (migration hub)
tamil nadu,karur,955733938,3283,629,1,1654420061,23054,26133,0,0,0,-22425,-26133,628,Backlog clearing / catch-up activity,13066.5,Severe urban pressure (migration hub)
tamil nadu,krishnagiri,1095042310,4051,844,8,1805970550,61625,41690,0,0,0,-60781,-41690,836,Backlog clearing / catch-up activity,4632.222222,Severe urban pressure (migration hub)
tamil nadu,madurai,1780036571,8735,973,39,2754215723,85897,96437,0,0,0,-84924,-96437,934,Backlog clearing / catch-up activity,2410.925,Severe urban pressure (migration hub)
tamil nadu,mayiladuthurai,252808724,430,63,1,854075526,2737,733,0,0,0,-2674,-733,62,Backlog clearing / catch-up activity,366.5,Severe urban pressure (migration hub)
tamil nadu,nagapattinam,1458263972,3237,696,0,3782500143,29811,40335,0,0,0,-29115,-40335,696,Backlog clearing / catch-up activity,40335,Severe urban pressure (migration hub)
tamil nadu,namakkal,1348159326,4193,573,9,2741708815,41006,64631,0,0,0,-40433,-64631,564,Backlog clearing / catch-up activity,6463.1,Severe urban pressure (migration hub)
tamil nadu,perambalur,615052197,1858,220,0,1177297924,20057,29635,0,0,0,-19837,-29635,220,Backlog clearing / catch-up activity,29635,Severe urban pressure (migration hub)
tamil nadu,pudukkottai,1492045374,5255,1605,36,2698013812,45626,68254,0,0,0,-44021,-68254,1569,Backlog clearing / catch-up activity,1844.702703,Severe urban pressure (migration hub)
tamil nadu,ramanathapuram,1237195722,3248,618,43,2656104670,39227,47688,0,0,0,-38609,-47688,575,Backlog clearing / catch-up activity,1083.818182,Severe urban pressure (migration hub)
tamil nadu,ranipet,59406813,96,12,1,224932898,411,198,0,0,0,-399,-198,11,Backlog clearing / catch-up activity,99,Severe urban pressure (migration hub)
tamil nadu,salem,2526096549,8248,1490,222,4297711123,93863,105739,0,0,0,-92373,-105739,1268,Backlog clearing / catch-up activity,474.1659193,Severe urban pressure (migration hub)
tamil nadu,sivaganga,1318494142,3649,644,21,3199420465,37521,44575,0,0,0,-36877,-44575,623,Backlog clearing / catch-up activity,2026.136364,Severe urban pressure (migration hub)
tamil nadu,tenkasi,548064685,1136,111,0,1381137281,6636,2203,0,0,0,-6525,-2203,111,Backlog clearing / catch-up activity,2203,Severe urban pressure (migration hub)
tamil nadu,thanjavur,2197362131,5751,1348,20,4658164782,60405,82286,0,0,0,-59057,-82286,1328,Backlog clearing / catch-up activity,3918.380952,Severe urban pressure (migration hub)
tamil nadu,the nilgiris,645735061,1245,402,5,2016882847,19166,18412,0,0,0,-18764,-18412,397,Backlog clearing / catch-up activity,3068.666667,Severe urban pressure (migration hub)
tamil nadu,theni,810695937,2847,529,2,1469377462,32626,39946,0,0,0,-32097,-39946,527,Backlog clearing / catch-up activity,13315.33333,Severe urban pressure (migration hub)
tamil nadu,thiruvallur,2326848638,8964,2655,52,4282413225,108397,98627,0,0,0,-105742,-98627,2603,Backlog clearing / catch-up activity,1860.886792,Severe urban pressure (migration hub)
tamil nadu,thiruvarur,1400862975,3281,780,3,3183898116,29338,32333,0,0,0,-28558,-32333,777,Backlog clearing / catch-up activity,8083.25,Severe urban pressure (migration hub)
tamil nadu,thoothukkudi,1589924936,4342,824,3,4023724691,57771,55940,0,0,0,-56947,-55940,821,Backlog clearing / catch-up activity,13985,Severe urban pressure (migration hub)
tamil nadu,tiruchirappalli,2283498149,8217,1456,5,4342380202,61017,105482,0,0,0,-59561,-105482,1451,Backlog clearing / catch-up activity,17580.33333,Severe urban pressure (migration hub)
tamil nadu,tirunelveli,2712542582,8124,1315,2,5578146705,82495,98087,0,0,0,-81180,-98087,1313,Backlog clearing / catch-up activity,32695.66667,Severe urban pressure (migration hub)
tamil nadu,tirupathur,418955113,914,87,2,1040092012,7631,2729,0,0,0,-7544,-2729,85,Backlog clearing / catch-up activity,909.6666667,Severe urban pressure (migration hub)
tamil nadu,tiruppur,1539777913,4958,1052,5,3144062524,62876,68295,0,0,0,-61824,-68295,1047,Backlog clearing / catch-up activity,11382.5,Severe urban pressure (migration hub)
tamil nadu,tiruvannamalai,1866756852,6405,658,33,3241247610,62864,52041,0,0,0,-62206,-52041,625,Backlog clearing / catch-up activity,1530.617647,Severe urban pressure (migration hub)
tamil nadu,vellore,2535543337,8094,1245,53,5207846694,83755,81261,0,0,0,-82510,-81261,1192,Backlog clearing / catch-up activity,1504.833333,Severe urban pressure (migration hub)
tamil nadu,viluppuram,3581652633,10002,1636,3,7844246641,86468,85863,0,0,0,-84832,-85863,1633,Backlog clearing / catch-up activity,21465.75,Severe urban pressure (migration hub)
tamil nadu,virudhunagar,1336353504,4664,593,11,2810636754,52086,54460,0,0,0,-51493,-54460,582,Backlog clearing / catch-up activity,4538.333333,Severe urban pressure (migration hub)
telangana,adilabad,1051340934,3590,721,4,3455497045,53035,66414,3429270203,7126,53194,-52314,-13220,717,Backlog clearing / catch-up activity,23921.6,Severe urban pressure (migration hub)
telangana,bhadradri kothagudem,452888741,2456,665,39,775451293,11238,8715,0,0,0,-10573,-8715,626,Backlog clearing / catch-up activity,217.875,Severe urban pressure (migration hub)
telangana,hanumakonda,323839540,903,101,5,648130948,1701,6543,1067137341,1537,13722,-1600,7179,96,Backlog clearing / catch-up activity,3377.5,Severe urban pressure (migration hub)
telangana,hyderabad,2446672407,23202,6395,661,4657371634,144379,155451,4875890323,29760,181557,-137984,26106,5734,Backlog clearing / catch-up activity,509.0755287,Severe urban pressure (migration hub)
telangana,jagtial,391201272,1457,96,9,685318623,6231,3572,0,0,0,-6135,-3572,87,Backlog clearing / catch-up activity,357.2,Severe urban pressure (migration hub)
telangana,jangaon,297665880,947,143,0,647991971,3946,3199,0,0,0,-3803,-3199,143,Backlog clearing / catch-up activity,3199,Severe urban pressure (migration hub)
telangana,jayashankar bhupalpally,200899093,660,165,4,313133328,1982,2223,0,0,0,-1817,-2223,161,Backlog clearing / catch-up activity,444.6,Severe urban pressure (migration hub)
telangana,jogulamba gadwal,242856212,1525,284,2,340610622,5319,4655,0,0,0,-5035,-4655,282,Backlog clearing / catch-up activity,1551.666667,Severe urban pressure (migration hub)
telangana,kamareddy,429214546,1833,136,2,739677320,7452,6583,822700642,2839,18702,-7316,12119,134,Backlog clearing / catch-up activity,8428.333333,Severe urban pressure (migration hub)
telangana,karimnagar,1687394333,5644,770,7,5084491871,67370,71229,5264935403,7206,60229,-66600,-11000,763,Backlog clearing / catch-up activity,16432.25,Severe urban pressure (migration hub)
telangana,khammam,1220233952,3617,1321,9,3913808756,56439,38246,4022359697,10791,56032,-55118,17786,1312,Backlog clearing / catch-up activity,9427.8,Severe urban pressure (migration hub)
telangana,kumuram bheem asifabad,204743218,904,181,0,317703672,4645,4137,0,0,0,-4464,-4137,181,Backlog clearing / catch-up activity,4137,Severe urban pressure (migration hub)
telangana,mahabubabad,336723589,1236,242,1,528649795,5644,3693,652212645,2058,16706,-5402,13013,241,Backlog clearing / catch-up activity,10199.5,Severe urban pressure (migration hub)
telangana,mahbubnagar,2329869759,9162,3020,15,5740330849,97581,102261,0,0,0,-94561,-102261,3005,Backlog clearing / catch-up activity,6391.3125,Severe urban pressure (migration hub)
telangana,mancherial,316155176,910,162,1,677690937,6994,4463,821396952,2579,20329,-6832,15866,161,Backlog clearing / catch-up activity,12396,Severe urban pressure (migration hub)
telangana,medak,1958280254,7218,1575,8,4483081171,67446,68732,4507183027,7853,46619,-65871,-22113,1567,Backlog clearing / catch-up activity,12816.77778,Severe urban pressure (migration hub)
telangana,medchal malkajgiri,754746193,3839,1207,134,1405028034,16033,14668,0,0,0,-14826,-14668,1073,Backlog clearing / catch-up activity,108.6518519,Severe urban pressure (migration hub)
telangana,mulugu,200549269,683,227,4,357038940,2264,2844,429994270,1026,7700,-2037,4856,223,Backlog clearing / catch-up activity,2108.8,Severe urban pressure (migration hub)
telangana,nagarkurnool,349375522,1056,271,2,706905808,6687,4585,815883650,1887,13588,-6416,9003,269,Backlog clearing / catch-up activity,6057.666667,Severe urban pressure (migration hub)
telangana,nalgonda,1595307871,6260,1426,10,4262459158,79545,76489,4532826238,9346,75837,-78119,-652,1416,Backlog clearing / catch-up activity,13847.81818,Severe urban pressure (migration hub)
telangana,narayanpet,263314335,1067,216,4,404392648,2693,3002,562789891,1959,12411,-2477,9409,212,Backlog clearing / catch-up activity,3082.6,Severe urban pressure (migration hub)
telangana,nirmal,272246476,1266,98,3,466847866,5970,6649,518776610,3984,26781,-5872,20132,95,Backlog clearing / catch-up activity,8357.5,Severe urban pressure (migration hub)
telangana,nizamabad,1250456224,6345,625,9,2953972137,60896,54760,2870904030,8233,46191,-60271,-8569,616,Backlog clearing / catch-up activity,10095.1,Severe urban pressure (migration hub)
telangana,peddapalli,198063606,506,65,3,474425656,2223,3562,620947556,803,7992,-2158,4430,62,Backlog clearing / catch-up activity,2888.5,Severe urban pressure (migration hub)
telangana,rajanna sircilla,217806511,814,47,3,443715743,4065,3278,0,0,0,-4018,-3278,44,Backlog clearing / catch-up activity,819.5,Severe urban pressure (migration hub)
telangana,ranga reddy,2913010438,15200,4106,173,6064082980,125396,148671,0,0,0,-121290,-148671,3933,Backlog clearing / catch-up activity,854.4310345,Severe urban pressure (migration hub)
telangana,sangareddy,555996874,2188,447,11,1112516174,13107,7129,1245116886,4891,25134,-12660,18005,436,Backlog clearing / catch-up activity,2688.583333,Severe urban pressure (migration hub)
telangana,siddipet,490156943,1660,166,1,1004117866,9738,5748,1234356259,3471,28299,-9572,22551,165,Backlog clearing / catch-up activity,17023.5,Severe urban pressure (migration hub)
telangana,suryapet,397439758,1726,290,2,643892511,8342,9671,739484353,3987,35930,-8052,26259,288,Backlog clearing / catch-up activity,15200.33333,Severe urban pressure (migration hub)
telangana,vikarabad,434080287,2052,491,2,651604988,7441,5688,796931404,7862,48100,-6950,42412,489,Backlog clearing / catch-up activity,17929.33333,Severe urban pressure (migration hub)
telangana,wanaparthy,295331399,1238,383,0,423139152,4315,4538,527525613,3016,15651,-3932,11113,383,Backlog clearing / catch-up activity,20189,Severe urban pressure (migration hub)
telangana,warangal,1679038680,4514,805,8,6167518130,70501,73532,6213041229,9006,66979,-69696,-6553,797,Backlog clearing / catch-up activity,15612.33333,Severe urban pressure (migration hub)
telangana,yadadri bhuvanagiri,340481373,1349,201,1,547820317,6531,5119,0,0,0,-6330,-5119,200,Backlog clearing / catch-up activity,2559.5,Severe urban pressure (migration hub)
tripura,dhalai,350081872,791,582,35,748116419,16257,11680,782486631,1120,11060,-15675,-620,547,Backlog clearing / catch-up activity,631.6666667,Severe urban pressure (migration hub)
tripura,gomati,198175623,451,194,11,478660575,9160,2366,529004058,1033,4867,-8966,2501,183,Backlog clearing / catch-up activity,602.75,Severe urban pressure (migration hub)
tripura,khowai,131069450,191,89,44,286914128,5373,1725,299701368,456,2172,-5284,447,45,Backlog clearing / catch-up activity,86.6,Severe urban pressure (migration hub)
tripura,north tripura,454781209,1021,395,25,1158937386,18141,20076,0,0,0,-17746,-20076,370,Backlog clearing / catch-up activity,772.1538462,Severe urban pressure (migration hub)
tripura,sepahijala,221354295,1113,543,30,398757143,10836,4841,441909384,893,10356,-10293,5515,513,Backlog clearing / catch-up activity,490.2258065,Severe urban pressure (migration hub)
tripura,south tripura,501856515,1331,750,4,1199490444,17862,27545,0,0,0,-17112,-27545,746,Backlog clearing / catch-up activity,5509,Severe urban pressure (migration hub)
tripura,unakoti,239783242,427,165,26,476369254,8411,3469,507541301,329,2490,-8246,-979,139,Backlog clearing / catch-up activity,220.7037037,Severe urban pressure (migration hub)
tripura,west tripura,823854237,1946,726,72,1951383657,27780,44794,0,0,0,-27054,-44794,654,Backlog clearing / catch-up activity,613.6164384,Severe urban pressure (migration hub)
uttar pradesh,agra,551331959,16077,12335,890,658103639,137133,73390,0,0,0,-124798,-73390,11445,Backlog clearing / catch-up activity,82.3681257,Severe urban pressure (migration hub)
uttar pradesh,aligarh,408528049,13611,11554,573,569940943,127108,49828,0,0,0,-115554,-49828,10981,Backlog clearing / catch-up activity,86.80836237,Severe urban pressure (migration hub)
uttar pradesh,ambedkar nagar,383996586,3758,3929,49,546300396,48802,29593,0,0,0,-44873,-29593,3880,Backlog clearing / catch-up activity,591.86,Severe urban pressure (migration hub)
uttar pradesh,amethi,405102477,3766,3094,55,658717225,51874,30769,0,0,0,-48780,-30769,3039,Backlog clearing / catch-up activity,549.4464286,Severe urban pressure (migration hub)
uttar pradesh,amroha,211266576,5426,2322,54,290649164,58346,25305,0,0,0,-56024,-25305,2268,Backlog clearing / catch-up activity,460.0909091,Severe urban pressure (migration hub)
uttar pradesh,auraiya,179405105,2109,1433,13,272817036,38043,17538,0,0,0,-36610,-17538,1420,Backlog clearing / catch-up activity,1252.714286,Severe urban pressure (migration hub)
uttar pradesh,ayodhya,590397337,4936,3347,33,1054810550,61709,30180,0,0,0,-58362,-30180,3314,Backlog clearing / catch-up activity,887.6470588,Severe urban pressure (migration hub)
uttar pradesh,azamgarh,778868244,6609,13141,266,1052916397,85796,69376,0,0,0,-72655,-69376,12875,Backlog clearing / catch-up activity,259.835206,Severe urban pressure (migration hub)
uttar pradesh,baghpat,236033339,3362,3098,152,328743657,31821,18182,0,0,0,-28723,-18182,2946,Backlog clearing / catch-up activity,118.8366013,Severe urban pressure (migration hub)
uttar pradesh,bahraich,424639539,14511,21986,2272,514894207,111999,41615,0,0,0,-90013,-41615,19714,Backlog clearing / catch-up activity,18.30840299,Severe urban pressure (migration hub)
uttar pradesh,ballia,590898299,4008,5571,33,842275058,71069,48799,0,0,0,-65498,-48799,5538,Backlog clearing / catch-up activity,1435.264706,Severe urban pressure (migration hub)
uttar pradesh,balrampur,257245317,4076,7594,228,321559853,57294,31739,0,0,0,-49700,-31739,7366,Backlog clearing / catch-up activity,138.5982533,Severe urban pressure (migration hub)
uttar pradesh,banda,152768270,4756,5436,201,204678677,49203,28444,0,0,0,-43767,-28444,5235,Backlog clearing / catch-up activity,140.8118812,Severe urban pressure (migration hub)
uttar pradesh,barabanki,538552383,6974,3999,140,856549101,101283,47999,0,0,0,-97284,-47999,3859,Backlog clearing / catch-up activity,340.4184397,Severe urban pressure (migration hub)
uttar pradesh,bareilly,385315612,16891,9712,586,503837410,145917,61419,0,0,0,-136205,-61419,9126,Backlog clearing / catch-up activity,104.6320273,Severe urban pressure (migration hub)
uttar pradesh,basti,432444559,4690,4915,70,599514224,62608,35208,0,0,0,-57693,-35208,4845,Backlog clearing / catch-up activity,495.8873239,Severe urban pressure (migration hub)
uttar pradesh,bhadohi,273585250,2117,2730,7,457742847,42853,23034,0,0,0,-40123,-23034,2723,Backlog clearing / catch-up activity,2879.25,Severe urban pressure (migration hub)
uttar pradesh,bijnor,425128921,12660,3666,68,570458676,127046,66949,0,0,0,-123380,-66949,3598,Backlog clearing / catch-up activity,970.2753623,Severe urban pressure (migration hub)
uttar pradesh,budaun,321283948,7627,7173,330,436625498,68400,29767,0,0,0,-61227,-29767,6843,Backlog clearing / catch-up activity,89.9305136,Severe urban pressure (migration hub)
uttar pradesh,bulandshahr,489651280,9021,7207,208,694601556,118714,42412,0,0,0,-111507,-42412,6999,Backlog clearing / catch-up activity,202.9282297,Severe urban pressure (migration hub)
uttar pradesh,chandauli,246299719,4319,4831,174,331592963,52282,25318,0,0,0,-47451,-25318,4657,Backlog clearing / catch-up activity,144.6742857,Severe urban pressure (migration hub)
uttar pradesh,chitrakoot,99217011,2881,2221,14,129699975,37279,17881,0,0,0,-35058,-17881,2207,Backlog clearing / catch-up activity,1192.066667,Severe urban pressure (migration hub)
uttar pradesh,deoria,453627780,4622,5201,113,625438616,70866,53160,0,0,0,-65665,-53160,5088,Backlog clearing / catch-up activity,466.3157895,Severe urban pressure (migration hub)
uttar pradesh,etah,172395300,6645,4230,147,246376311,56984,21346,0,0,0,-52754,-21346,4083,Backlog clearing / catch-up activity,144.2297297,Severe urban pressure (migration hub)
uttar pradesh,etawah,195616599,4086,2762,114,262397647,45585,24642,0,0,0,-42823,-24642,2648,Backlog clearing / catch-up activity,214.2782609,Severe urban pressure (migration hub)
uttar pradesh,farrukhabad,260104518,2778,2760,81,375240388,50458,20090,0,0,0,-47698,-20090,2679,Backlog clearing / catch-up activity,245,Severe urban pressure (migration hub)
uttar pradesh,fatehpur,321757922,6340,5374,222,446211983,63459,39791,0,0,0,-58085,-39791,5152,Backlog clearing / catch-up activity,178.4349776,Severe urban pressure (migration hub)
uttar pradesh,firozabad,270168099,7156,4769,120,430750665,73201,29128,0,0,0,-68432,-29128,4649,Backlog clearing / catch-up activity,240.7272727,Severe urban pressure (migration hub)
uttar pradesh,gautam buddha nagar,244309923,8903,9106,627,356971726,42259,35656,0,0,0,-33153,-35656,8479,Backlog clearing / catch-up activity,56.77707006,Severe urban pressure (migration hub)
uttar pradesh,ghaziabad,379304522,11810,10419,383,499434623,90529,79040,0,0,0,-80110,-79040,10036,Backlog clearing / catch-up activity,205.8333333,Severe urban pressure (migration hub)
uttar pradesh,ghazipur,563158755,4241,6575,67,796393189,81064,47923,0,0,0,-74489,-47923,6508,Backlog clearing / catch-up activity,704.75,Severe urban pressure (migration hub)
uttar pradesh,gonda,549641356,7277,7219,322,724077217,83875,46280,0,0,0,-76656,-46280,6897,Backlog clearing / catch-up activity,143.2817337,Severe urban pressure (migration hub)
uttar pradesh,gorakhpur,688176347,7353,11684,424,906995903,72495,84211,0,0,0,-60811,-84211,11260,Backlog clearing / catch-up activity,198.1435294,Severe urban pressure (migration hub)
uttar pradesh,hamirpur,163095599,1986,1340,26,241590458,32755,15429,0,0,0,-31415,-15429,1314,Backlog clearing / catch-up activity,571.4444444,Severe urban pressure (migration hub)
uttar pradesh,hapur,107996949,4401,2662,37,174203131,34381,15788,0,0,0,-31719,-15788,2625,Backlog clearing / catch-up activity,415.4736842,Severe urban pressure (migration hub)
uttar pradesh,hardoi,386248493,12432,12002,288,467795878,130830,48100,0,0,0,-118828,-48100,11714,Backlog clearing / catch-up activity,166.4359862,Severe urban pressure (migration hub)
uttar pradesh,hathras,203068593,3655,2480,76,303416999,52088,18038,0,0,0,-49608,-18038,2404,Backlog clearing / catch-up activity,234.2597403,Severe urban pressure (migration hub)
uttar pradesh,jalaun,296540062,2740,2535,125,435929773,39868,24345,0,0,0,-37333,-24345,2410,Backlog clearing / catch-up activity,193.2142857,Severe urban pressure (migration hub)
uttar pradesh,jaunpur,587887253,5305,9871,214,888432715,97975,65348,0,0,0,-88104,-65348,9657,Backlog clearing / catch-up activity,303.944186,Severe urban pressure (migration hub)
uttar pradesh,jhansi,353843105,4454,2391,60,522153841,60332,38935,0,0,0,-57941,-38935,2331,Backlog clearing / catch-up activity,638.2786885,Severe urban pressure (migration hub)
uttar pradesh,kannauj,217909251,3020,3345,98,287958981,44642,19632,0,0,0,-41297,-19632,3247,Backlog clearing / catch-up activity,198.3030303,Severe urban pressure (migration hub)
uttar pradesh,kanpur dehat,240665399,3953,3673,181,329844124,47327,19560,0,0,0,-43654,-19560,3492,Backlog clearing / catch-up activity,107.4725275,Severe urban pressure (migration hub)
uttar pradesh,kanpur nagar,533729321,11203,12190,662,739195382,83237,79626,0,0,0,-71047,-79626,11528,Backlog clearing / catch-up activity,120.0995475,Severe urban pressure (migration hub)
uttar pradesh,kasganj,146110514,3118,2886,152,216774160,46002,21221,0,0,0,-43116,-21221,2734,Backlog clearing / catch-up activity,138.6993464,Severe urban pressure (migration hub)
uttar pradesh,kaushambi,181204734,4233,2936,68,243107470,66085,21180,0,0,0,-63149,-21180,2868,Backlog clearing / catch-up activity,306.9565217,Severe urban pressure (migration hub)
uttar pradesh,kushinagar,335275373,5124,6571,42,448591952,73286,58911,0,0,0,-66715,-58911,6529,Backlog clearing / catch-up activity,1370.023256,Severe urban pressure (migration hub)
uttar pradesh,lakhimpur kheri,470130698,11081,12523,437,581488491,119693,43500,0,0,0,-107170,-43500,12086,Backlog clearing / catch-up activity,99.31506849,Severe urban pressure (migration hub)
uttar pradesh,lalitpur,189058042,3249,1245,72,253584454,41343,26581,0,0,0,-40098,-26581,1173,Backlog clearing / catch-up activity,364.1232877,Severe urban pressure (migration hub)
uttar pradesh,lucknow,652831835,13559,10801,443,912856814,110413,83321,0,0,0,-99612,-83321,10358,Backlog clearing / catch-up activity,187.6599099,Severe urban pressure (migration hub)
uttar pradesh,mahoba,114893747,1921,980,10,161610674,27397,13392,0,0,0,-26417,-13392,970,Backlog clearing / catch-up activity,1217.454545,Severe urban pressure (migration hub)
uttar pradesh,mahrajganj,304363922,6053,10927,456,377314037,52952,39198,0,0,0,-42025,-39198,10471,Backlog clearing / catch-up activity,85.77242888,Severe urban pressure (migration hub)
uttar pradesh,mainpuri,237603881,4992,6261,184,318249590,43562,23457,0,0,0,-37301,-23457,6077,Backlog clearing / catch-up activity,126.7945946,Severe urban pressure (migration hub)
uttar pradesh,mathura,470505376,5688,5482,124,633089421,70041,35253,0,0,0,-64559,-35253,5358,Backlog clearing / catch-up activity,282.024,Severe urban pressure (migration hub)
uttar pradesh,mau,339889374,2565,4744,44,469201596,39851,36825,0,0,0,-35107,-36825,4700,Backlog clearing / catch-up activity,818.3333333,Severe urban pressure (migration hub)
uttar pradesh,meerut,362489757,13936,9310,243,470535048,91381,57489,0,0,0,-82071,-57489,9067,Backlog clearing / catch-up activity,235.6106557,Severe urban pressure (migration hub)
uttar pradesh,mirzapur,220648317,3468,3951,8,314553656,64928,29822,0,0,0,-60977,-29822,3943,Backlog clearing / catch-up activity,3313.555556,Severe urban pressure (migration hub)
uttar pradesh,moradabad,240062776,14995,5967,212,340879667,88383,52595,0,0,0,-82416,-52595,5755,Backlog clearing / catch-up activity,246.9248826,Severe urban pressure (migration hub)
uttar pradesh,muzaffarnagar,353642010,7081,4425,114,498395769,97446,50443,0,0,0,-93021,-50443,4311,Backlog clearing / catch-up activity,438.6347826,Severe urban pressure (migration hub)
uttar pradesh,pilibhit,148384992,8670,4546,210,195731385,82562,35438,0,0,0,-78016,-35438,4336,Backlog clearing / catch-up activity,167.9526066,Severe urban pressure (migration hub)
uttar pradesh,pratapgarh,521127849,5717,4177,56,727892915,70948,44957,0,0,0,-66771,-44957,4121,Backlog clearing / catch-up activity,788.7192982,Severe urban pressure (migration hub)
uttar pradesh,prayagraj,767388085,8465,6921,228,1256630613,171424,81704,0,0,0,-164503,-81704,6693,Backlog clearing / catch-up activity,356.7860262,Severe urban pressure (migration hub)
uttar pradesh,rae bareli,517136765,5627,3627,37,810111536,72302,40154,0,0,0,-68675,-40154,3590,Backlog clearing / catch-up activity,1056.684211,Severe urban pressure (migration hub)
uttar pradesh,rampur,144659115,11855,7594,296,195495139,71336,37651,0,0,0,-63742,-37651,7298,Backlog clearing / catch-up activity,126.7710438,Severe urban pressure (migration hub)
uttar pradesh,saharanpur,304750766,13502,5156,94,453683984,100201,67700,0,0,0,-95045,-67700,5062,Backlog clearing / catch-up activity,712.6315789,Severe urban pressure (migration hub)
uttar pradesh,sambhal,245608423,4567,3584,99,336634945,70285,22811,0,0,0,-66701,-22811,3485,Backlog clearing / catch-up activity,228.11,Severe urban pressure (migration hub)
uttar pradesh,sant kabir nagar,299387349,2730,3153,34,399267049,48827,32063,0,0,0,-45674,-32063,3119,Backlog clearing / catch-up activity,916.0857143,Severe urban pressure (migration hub)
uttar pradesh,shahjahanpur,265269741,12643,10870,434,344000004,96783,34945,0,0,0,-85913,-34945,10436,Backlog clearing / catch-up activity,80.33333333,Severe urban pressure (migration hub)
uttar pradesh,shamli,156915146,5441,2487,44,215202119,56546,35274,0,0,0,-54059,-35274,2443,Backlog clearing / catch-up activity,783.8666667,Severe urban pressure (migration hub)
uttar pradesh,shravasti,184043586,2652,4600,242,289246384,30922,17333,0,0,0,-26322,-17333,4358,Backlog clearing / catch-up activity,71.32921811,Severe urban pressure (migration hub)
uttar pradesh,siddharthnagar,325264825,6397,10999,534,436587038,56261,38045,0,0,0,-45262,-38045,10465,Backlog clearing / catch-up activity,71.11214953,Severe urban pressure (migration hub)
uttar pradesh,sitapur,442766992,15979,13521,730,554060232,172120,55316,0,0,0,-158599,-55316,12791,Backlog clearing / catch-up activity,75.67168263,Severe urban pressure (migration hub)
uttar pradesh,sonbhadra,223622542,2876,1925,13,369334338,58735,25835,0,0,0,-56810,-25835,1912,Backlog clearing / catch-up activity,1845.357143,Severe urban pressure (migration hub)
uttar pradesh,sultanpur,402924749,5353,5643,131,583596558,53692,33064,0,0,0,-48049,-33064,5512,Backlog clearing / catch-up activity,250.4848485,Severe urban pressure (migration hub)
uttar pradesh,unnao,325229921,9696,8630,362,473828696,80812,47769,0,0,0,-72182,-47769,8268,Backlog clearing / catch-up activity,131.5950413,Severe urban pressure (migration hub)
uttar pradesh,varanasi,462479525,9368,13101,447,662036812,92935,71928,0,0,0,-79834,-71928,12654,Backlog clearing / catch-up activity,160.5535714,Severe urban pressure (migration hub)
uttarakhand,almora,205601372,1185,122,8,612424601,15443,13929,610520021,1385,10157,-15321,-3772,114,Backlog clearing / catch-up activity,2676.222222,Severe urban pressure (migration hub)
uttarakhand,bageshwar,107827757,664,59,2,273391430,7367,11606,266273440,663,3924,-7308,-7682,57,Backlog clearing / catch-up activity,5176.666667,Severe urban pressure (migration hub)
uttarakhand,chamoli,155755410,983,72,7,450510431,12490,12388,435477067,841,6484,-12418,-5904,65,Backlog clearing / catch-up activity,2359,Severe urban pressure (migration hub)
uttarakhand,champawat,82941056,763,93,0,176913276,10935,9901,187144324,1034,8207,-10842,-1694,93,Backlog clearing / catch-up activity,18108,Severe urban pressure (migration hub)
uttarakhand,dehradun,370896345,7676,1520,134,704809742,61166,56560,751959915,6012,60066,-59646,3506,1386,Backlog clearing / catch-up activity,863.8962963,Severe urban pressure (migration hub)
uttarakhand,haridwar,295710007,4627,1187,51,500047769,84860,42598,566881183,5046,47548,-83673,4950,1136,Backlog clearing / catch-up activity,1733.576923,Severe urban pressure (migration hub)
uttarakhand,nainital,193493120,3321,432,76,411678945,35434,28343,437101549,5373,37322,-35002,8979,356,Backlog clearing / catch-up activity,852.7922078,Severe urban pressure (migration hub)
uttarakhand,pauri garhwal,246345392,1692,161,14,818535046,22984,17973,0,0,0,-22823,-17973,147,Backlog clearing / catch-up activity,1198.2,Severe urban pressure (migration hub)
uttarakhand,pithoragarh,175112007,1042,140,9,473092539,14527,12653,488058467,1198,9404,-14387,-3249,131,Backlog clearing / catch-up activity,2205.7,Severe urban pressure (migration hub)
uttarakhand,rudraprayag,110378217,860,76,0,242702857,10914,11010,225694977,528,4134,-10838,-6876,76,Backlog clearing / catch-up activity,15144,Severe urban pressure (migration hub)
uttarakhand,tehri garhwal,232705627,2355,292,13,464907976,25492,27239,0,0,0,-25200,-27239,279,Backlog clearing / catch-up activity,1945.642857,Severe urban pressure (migration hub)
uttarakhand,udham singh nagar,202371571,4976,936,17,320548227,85246,50290,0,0,0,-84310,-50290,919,Backlog clearing / catch-up activity,2793.888889,Severe urban pressure (migration hub)
uttarakhand,uttarkashi,106145884,938,127,5,207056996,12899,9224,218021266,1207,6621,-12772,-2603,122,Backlog clearing / catch-up activity,2640.833333,Severe urban pressure (migration hub)
west bengal,alipurduar,442953468,1516,1696,436,866028120,3345,3306,0,0,0,-1649,-3306,1260,Backlog clearing / catch-up activity,7.565217391,Severe urban pressure (migration hub)
west bengal,bankura,2014708045,8991,2001,144,3451376721,47535,48906,0,0,0,-45534,-48906,1857,Backlog clearing / catch-up activity,337.2827586,Severe urban pressure (migration hub)
west bengal,birbhum,1745624378,13168,1948,106,2555760727,42736,55692,0,0,0,-40788,-55692,1842,Backlog clearing / catch-up activity,520.4859813,Severe urban pressure (migration hub)
west bengal,cooch behar,2408968951,11556,6305,439,3529808859,20466,31639,0,0,0,-14161,-31639,5866,Backlog clearing / catch-up activity,71.90681818,Severe urban pressure (migration hub)
west bengal,dakshin dinajpur,952335671,6381,1360,133,1605560606,20072,22199,0,0,0,-18712,-22199,1227,Backlog clearing / catch-up activity,165.6641791,Severe urban pressure (migration hub)
west bengal,darjeeling,1444973868,4465,2706,771,2923038750,12651,24583,0,0,0,-9945,-24583,1935,Backlog clearing / catch-up activity,31.84326425,Severe urban pressure (migration hub)
west bengal,hooghly,3266870806,11158,3725,337,5483770574,63443,80447,0,0,0,-59718,-80447,3388,Backlog clearing / catch-up activity,238.0088757,Severe urban pressure (migration hub)
west bengal,howrah,2631048005,9980,3846,143,4875046148,43709,68780,0,0,0,-39863,-68780,3703,Backlog clearing / catch-up activity,477.6388889,Severe urban pressure (migration hub)
west bengal,jalpaiguri,2070541737,5630,4242,529,3609322873,28787,42928,0,0,0,-24545,-42928,3713,Backlog clearing / catch-up activity,80.99622642,Severe urban pressure (migration hub)
west bengal,jhargram,372954226,731,166,50,733625632,1660,2024,0,0,0,-1494,-2024,116,Backlog clearing / catch-up activity,39.68627451,Severe urban pressure (migration hub)
west bengal,kalimpong,106505062,175,183,152,192422057,418,264,0,0,0,-235,-264,31,Backlog clearing / catch-up activity,1.725490196,Moderate migration
west bengal,kolkata,2043415911,4974,4463,714,3902049102,24050,56336,0,0,0,-19587,-56336,3749,Backlog clearing / catch-up activity,78.79160839,Severe urban pressure (migration hub)
west bengal,malda,2062725034,12781,4274,82,3190626981,37514,60501,0,0,0,-33240,-60501,4192,Backlog clearing / catch-up activity,728.9277108,Severe urban pressure (migration hub)
west bengal,murshidabad,3331977291,31063,4184,85,4849397745,81629,114662,0,0,0,-77445,-114662,4099,Backlog clearing / catch-up activity,1333.27907,Severe urban pressure (migration hub)
west bengal,nadia,2756611567,13093,3505,836,4256025780,46048,66197,0,0,0,-42543,-66197,2669,Backlog clearing / catch-up activity,79.08841099,Severe urban pressure (migration hub)
west bengal,north 24 parganas,5428780807,25656,8312,1844,9617876972,89730,122282,0,0,0,-81418,-122282,6468,Backlog clearing / catch-up activity,66.27750678,Severe urban pressure (migration hub)
west bengal,paschim bardhaman,657665895,852,303,91,1598505924,3313,5517,0,0,0,-3010,-5517,212,Backlog clearing / catch-up activity,59.9673913,Severe urban pressure (migration hub)
west bengal,paschim medinipur,3701362031,16055,4346,170,6086351020,67619,84766,0,0,0,-63273,-84766,4176,Backlog clearing / catch-up activity,495.7076023,Severe urban pressure (migration hub)
west bengal,purba bardhaman,5786191775,16472,3619,141,11763300389,77982,108247,0,0,0,-74363,-108247,3478,Backlog clearing / catch-up activity,762.3028169,Severe urban pressure (migration hub)
west bengal,purba medinipur,3883762497,14567,1557,62,7444991064,62369,79669,0,0,0,-60812,-79669,1495,Backlog clearing / catch-up activity,1264.587302,Severe urban pressure (migration hub)
west bengal,purulia,1818713699,10094,3453,133,2756606459,34263,53126,0,0,0,-30810,-53126,3320,Backlog clearing / catch-up activity,396.4626866,Severe urban pressure (migration hub)
west bengal,south 24 parganas,4371020311,27955,8956,315,6713733885,99684,130475,0,0,0,-90728,-130475,8641,Backlog clearing / catch-up activity,412.8955696,Severe urban pressure (migration hub)
west bengal,uttar dinajpur,1206808287,24915,12808,699,1659173808,29816,54359,0,0,0,-17008,-54359,12109,Backlog clearing / catch-up activity,77.65571429,Severe urban pressure (migration hub)
